STREET,QUADRANT,FROMINTERSECTION,TOINTERSECTION,NOOFBLOCKS,WORKDESCRIPTION,YEARBUDGETED,PERCENTCOMPLETED,STATUS,MILES,WARD,FUNCTIONALCLASS,ESTIMATEDSTARTDATE,ESTIMATEDCOMPLETIONDATE,ACTUALCOMPLETIONDATE,REMARKS,XCOORD,YCOORD,LATITUDE,LONGITUDE,PROJECTNOTE,PROJECTNAME,PROJECTMGR,PROJECTID,TEAMREP,EMAIL,CONTACTPHONE
13th St,NW,Kennedy St,Longfellow St,1,Pavement Resurface/restoration,2004,100,Completed,0.07,4,MINOR ARTERIAL,4/4/2005 12:00:00 AM,8/1/2005 12:00:00 AM,8/1/2005 12:00:00 AM,WASA Lead Location FY-05,397426.248480,143205.119810,38.95674728748580,-77.02969432656290,,FedAid,Paul Stephenson,5834,O. Hill,N/A,202-671-4591
S St,NW,North Capitol St,3rd St,3,Regular Cover,1999,100,Completed,0.33,5,LOCAL,3/31/2004 12:00:00 AM,,8/1/2005 12:00:00 AM,2 Year CIP 2001 - 2003,398923.606460,138468.902560,38.914085136186,-77.01241132297460,,,,2467,,,
Rhode Island Ave,NE,Brentwood Rd (W),Brentwood Rd (M),1,Pavement Resurface/restoration,2004,100,Completed,0.09,5,PRINCIPAL ARTERIAL,7/1/2005 12:00:00 AM,8/5/2005 12:00:00 AM,8/3/2005 12:00:00 AM,,401108.114560,139574.106590,38.92404113618740,-76.98722113489370,,Fedral Aid Citywide Pavement Restoration,Mohamed Abdullahi,5486,Said Cherifi,said.cherifi@dc.gov,202-671-4611
Mill Rd,NW,27th St,Cul De Sac,1,Pavement Resurface/restoration,2004,100,Completed,0.07,2,LOCAL,4/4/2005 12:00:00 AM,,8/3/2005 12:00:00 AM,,395309.868030,138132.901980,38.91104647452620,-77.05407712302820,POKA-2003-B-0048-JJ,Citywide Pavement Restoration Contract (Local Streets),Maduabuchi Udeh,5796,Michael Jelen,Michael.Jelen@dc.gov,202-671-4542
Rhode Island Ave,NE,Brentwood Rd (M),14th St  Evarts St  Montan,2,Pavement Resurface/restoration,2005,100,Completed,0.16,5,PRINCIPAL ARTERIAL,7/1/2008 12:00:00 AM,,8/3/2005 12:00:00 AM,,401294.796740,139657.253180,38.92478989188340,-76.98506814436680,,,,8237,,,
Mellon St,SE,5th St,Martin Luther King Jr Ave,1,Pavement Resurface/restoration,2005,100,Completed,0.20,8,LOCAL,7/1/2006 12:00:00 AM,,8/3/2005 12:00:00 AM,,400133.423420,130948.259580,38.84633690526180,-76.99846302530360,,CIP_2004-2009,FY-05,4175,,,
Nebraska Ave,NW,Northampton St,Oliver St,1,Pavement Resurface/restoration,2004,100,Completed,0.07,4,COLLECTOR,4/4/2005 12:00:00 AM,,8/4/2005 12:00:00 AM,,394655.007160,144260.9552,38.96624602673290,-77.06167538902380,N/A,Citywide Pavement Restoration,Paul Stephenson,5296,M. Howard and O. hill,N/A,202-671-4591
Military Rd,NW,30th St,Broad Branch Rd,4,Pavement Resurface/restoration,2004,100,Completed,0.35,4,PRINCIPAL ARTERIAL,3/31/2004 12:00:00 AM,,8/4/2005 12:00:00 AM,,394540.290330,143680.418240,38.96101570010380,-77.06299447319240,N/A,FedAid_6YR_CIP,Paul Stephenson,4762,O. Hill,N/A,202-671-4591
Nebraska Ave,NW,Oliver St,Utah Ave,1,Pavement Resurface/restoration,2005,100,Completed,0.04,4,COLLECTOR,7/1/2006 12:00:00 AM,,8/4/2005 12:00:00 AM,,394702.648340,144332.348580,38.96688944430030,-77.06112621353360,N/A,Citywide Pavement Restoratin,paul Stephenson,7867,M. Howard and O. Hill,N/A,202-671-4591
16th St,NW,Alaska Ave,Primrose Rd,13,Reconstruction,1999,100,Completed,0.97,4,PRINCIPAL ARTERIAL,6/15/2001 12:00:00 AM,,6/20/2005 12:00:00 AM,Storm water management from Alaska & Whittier to Rock Reek was designed and constructed once construction of the roadway started.,396851.005880,145993.534920,38.98186412402230,-77.03634392127010,Reconstruction of 16th St. from Alaska to Primrose,Recons of 16TH St. from Alaska to Prime Rose  N.W.,Eskender  Konjit,2349,Porter Curtis,Porter.Curtis@Dc.gov,202-671-4581
Shoemaker St,NW,Linnean Ave,Tilden St,1,Upgrading,2004,100,Completed,0.06,3,LOCAL,3/31/2004 12:00:00 AM,,6/20/2005 12:00:00 AM,2 Year CIP 2001 - 2003,395436.486140,141355.7520,38.94007958838560,-77.05263864600330,,,,2605,,,
Underwood St,NW,Piney Branch Rd,Georgia Ave (S),1,Reconstruction,2004,100,Completed,0.08,4,LOCAL,3/31/2004 12:00:00 AM,6/20/2005 12:00:00 AM,6/20/2005 12:00:00 AM,2 Year CIP 2001 - 2003,397684.465310,144524.257890,38.96863113377640,-77.02671963796430,N/A,Citywide Pavement Restoration,Paul Stephenson,2620,,N/A,
Elder St,NW,7th St,8th St,1,Regular Cover,2004,100,Completed,0.08,4,LOCAL,3/30/2003 12:00:00 AM,,6/20/2005 12:00:00 AM,2 Year CIP 2001 - 2003,397946.335230,145484.907360,38.97728553957830,-77.02370072183250,,,,2502,,,
26th St,NW,Northampton St,Rittenhouse St,1,Regular Cover,2004,100,Completed,0.16,4,LOCAL,3/31/2004 12:00:00 AM,,6/21/2005 12:00:00 AM,2 Year CIP 2001 - 2003,395222.364150,144523.710120,38.96861625628640,-77.05513054072390,,,,2474,,,
4th St,NW,Madison St (N),Peabody St,5,Regular Cover,1999,100,Completed,0.27,4,LOCAL,4/5/2004 12:00:00 AM,,6/21/2005 12:00:00 AM,2 Year CIP 2001 - 2003,398437.014590,143645.750150,38.96071897980130,-77.01803374746770,,,,2643,,,
Underwood Pl,NW,North Capitol St,1st St,1,Pavement Resurface/restoration,2004,100,Completed,0.14,4,LOCAL,4/4/2005 12:00:00 AM,6/22/2005 12:00:00 AM,6/22/2005 12:00:00 AM,,399104.380030,144575.760520,38.96909767782070,-77.01033489061090,N/A,Citywidy Pavement Restoration,Paul Stephenson,5879,Rodney,N/A,202-671-4591
20th St,NW,Columbia Rd,Wyoming Ave,1,Pavement Resurface/restoration,2004,100,Completed,0.04,1,LOCAL,3/31/2004 12:00:00 AM,,6/23/2005 12:00:00 AM,Added to IDIQ04 per Team 1,396042.847390,138911.216350,38.91806139575960,-77.045630373562,POKA-2003-B-0048-JJ,Citywide Pavement Restoration Contract (Local Streets),Maduabuchi Udeh,3422,Michael Jelen,Michael.Jelen@dc.gov,202-671-4542
Quintana Pl,NE,3rd St,Eastern Ave,1,Pavement Resurface/restoration,2004,100,Completed,0.12,4,LOCAL,4/4/2005 12:00:00 AM,6/23/2005 12:00:00 AM,6/23/2005 12:00:00 AM,2 Year CIP 2001 - 2003,399845.799520,144049.463750,38.964357110893,-77.00177925810040,N/A,Citywide Pavement Restoration,Paul Stephenson,2621,,N/A,
Tuckerman St,NE,Kansas Ave,Eastern Ave,1,Reconstruction,2004,100,Completed,0.12,4,LOCAL,3/31/2004 12:00:00 AM,6/23/2005 12:00:00 AM,6/23/2005 12:00:00 AM,2 Year CIP 2001 - 2003,399496.144190,144380.436260,38.96733846177190,-77.005814035310,N/A,Citywide Pavement Restoration,Paul Stephenson,2513,,N/A,202-671-4594
Eads St,NE,45th St,47th St,1,Pavement Resurface/restoration,2005,100,Completed,0.16,7,LOCAL,7/1/2007 12:00:00 AM,,6/24/2005 12:00:00 AM,INFORMATION PROVIDED BY SYLVESTER (TEAM 4),405524.723430,136373.008890,38.89518788958450,-76.936314213888,,CITYWIDE PAVEMENT RESTORATION CONTRACT (LOCAL STREETS),,7151,,,
4th St,SE,Newcomb St,Orange St,2,Pavement Resurface/restoration,2005,100,Completed,0.11,8,LOCAL,,,6/24/2005 12:00:00 AM,INFORMATION PROVIDED BY SYLVESTER (TEAM 4),399672.286690,131031.177660,38.84708381693130,-77.00377514183930,,CITYWIDE PAVEMENT RESTORATION CONTRACT (LOCAL STREETS),,8740,,,
Belt Rd,NW,Jenifer St,Military Rd,1,Reconstruction,2004,100,Completed,0.16,3,LOCAL,3/31/2004 12:00:00 AM,,6/24/2005 12:00:00 AM,2 Year CIP 2001 - 2003,392984.549980,143576.290280,38.96006664049010,-77.08094362944150,,,,2612,,,
Oneida St,NE,New Hampshire Ave,6th St,2,Regular Cover,1999,100,Completed,0.34,4,LOCAL,,6/24/2005 12:00:00 AM,6/24/2005 12:00:00 AM,2 Year CIP 2001 - 2003,399812.889730,143788.686560,38.96200795810520,-77.00215891993620,N/A,Citywide Pavement Restoration,Paul Stephenson,2645,,N/A,
Carrollsburg Pl,SW,O St,P St,1,Pavement Resurface/restoration,2004,100,Completed,0.06,6,LOCAL,,,6/25/2005 12:00:00 AM,,399140.916090,133852.114870,38.87249564847420,-77.00989986793530,,,FY-05,5063,,,
23rd St,NW,Washington Cir (N),M St,2,Pavement Resurface/restoration,2004,100,Completed,0.15,2,PRINCIPAL ARTERIAL,4/4/2005 12:00:00 AM,,6/25/2005 12:00:00 AM,,395653.136890,137368.332450,38.904160733373,-77.05011440170990,,,,5215,,,
Kanawha St,NW,Utah Ave,30th St,2,Reconstruction,2004,100,Completed,0.21,4,LOCAL,3/31/2004 12:00:00 AM,,6/25/2005 12:00:00 AM,2 Year CIP 2001 - 2003,394917.144410,143966.171560,38.96359209942560,-77.05864842656890,,,,2614,,,
Piney Branch Rd,NW,Underwood St,Venable Pl,2,Pavement Resurface/restoration,2004,100,Completed,0.16,4,MINOR ARTERIAL,4/4/2005 12:00:00 AM,,6/27/2005 12:00:00 AM,,397786.545850,144641.002470,38.96968306018680,-77.02554207748430,,,,5299,,,
30th St,NW,Stephenson Pl,Tennyson St,1,Regular Cover,2004,100,Completed,0.15,4,LOCAL,3/31/2004 12:00:00 AM,6/27/2005 12:00:00 AM,6/27/2005 12:00:00 AM,2 Year CIP 2001 - 2003,394882.299830,144904.925570,38.97204841928170,-77.05905748737710,N/A,Citywide Pavement Restoration,Paul Stephenson,2461,M. Howard,N/A,202-671-4591
32nd St,NW,Woodland Dr,Cleveland Ave,1,Regular Cover,2004,100,Completed,0.06,3,LOCAL,3/31/2004 12:00:00 AM,,6/27/2005 12:00:00 AM,2 Year CIP 2001 - 2003,394513.900410,139907.441980,38.92702749971470,-77.06326879060480,,,,2466,,,
33rd St,NW,Broad Branch Ter,Linnean Ter,1,Regular Cover,2004,100,Completed,0.14,3,LOCAL,3/31/2004 12:00:00 AM,,6/27/2005 12:00:00 AM,2 Year CIP 2001 - 2003,394329.703930,143174.308740,38.95645520153660,-77.065420046715,,,,2470,,,
Kanawha St,NW,Chevy Chase Pky,38th St,2,Upgrading,2004,100,Completed,0.23,3,LOCAL,3/31/2004 12:00:00 AM,,6/27/2005 12:00:00 AM,2 Year CIP 2001 - 2003,393715.0350,143603.490020,38.96031719357550,-77.07251561222340,,,,2584,,,
36th Pl,NW,Davis St,Garfield St,3,Upgrading,1999,100,Completed,0.32,3,LOCAL,8/4/2003 12:00:00 AM,,6/27/2005 12:00:00 AM,2 Year CIP 2001 - 2003,393755.342870,139746.974720,38.925576897178,-77.07201544012130,,,,2591,,,
Quackenbos St,NW,2nd St,3rd St,1,Regular Cover,2004,100,Completed,0.14,4,LOCAL,3/31/2004 12:00:00 AM,,6/28/2005 12:00:00 AM,,398708.066240,143984.642950,38.96377225227220,-77.014906988319,,CIP_2004-2009,,3469,,,
Ordway St,NW,30th St,34th St,2,Upgrading,2004,100,Completed,0.29,3,LOCAL,3/31/2004 12:00:00 AM,,6/28/2005 12:00:00 AM,Added per an e-mail from Khalid  Muhammed ,394474.5662,140936.006560,38.93629287547440,-77.06373069585940,,,,4991,,,
5th St,SE,Lebaum St,Mellon St,1,Regular Cover,2004,100,Completed,0.05,8,LOCAL,3/31/2004 12:00:00 AM,,6/28/2005 12:00:00 AM,,400040.598720,131076.142550,38.84748894053690,-76.99953231439930,,CIP_2004-2009,,4871,,,
Lebaum St,SE,5th St,Martin Luther King Jr Ave,1,Pavement Resurface/restoration,2005,100,Completed,0.18,8,LOCAL,,,6/28/2005 12:00:00 AM,INFORMATION PROVIDED BY SYLVESTER (TEAM 4),400183.062210,131022.219990,38.84700316429280,-76.997891190238,,CITYWIDE PAVEMENT RESTORATION CONTRACT,,8739,,,
Chillum Pl,NE,Sligo Mill Rd (N),Kansas Ave,2,Regular Cover,2004,100,Completed,0.16,4,LOCAL,3/31/2004 12:00:00 AM,6/28/2005 12:00:00 AM,6/28/2005 12:00:00 AM,2 Year CIP 2001 - 2003,399306.363930,144005.312680,38.96395912667420,-77.008003546461,N/A,Citywide Pavement Restoration,Paul Stephenson,2504,,N/A,
Tewkesbury Pl,NW,6th St,7th St,1,Regular Cover,1999,100,Completed,0.06,4,LOCAL,4/5/2004 12:00:00 AM,,6/28/2005 12:00:00 AM,2 Year CIP 2001 - 2003,398110.334910,144446.718720,38.96793366181240,-77.02180518948960,,,,2494,,,
M St,NE,17th St,Cul De Sac,8,Street Light Projects,2005,100,Completed,0.58,5,LOCAL,,,6/30/2005 12:00:00 AM,Fixture Upgrade,402292.712160,137529.893120,38.90562388661530,-76.97356708780780,,,,9105,,,
Chillum Pl,NE,Kennedy St,Riggs Rd,2,Pavement Resurface/restoration,2005,100,Completed,0.19,4,LOCAL,6/14/2005 12:00:00 AM,6/29/2005 12:00:00 AM,6/29/2005 12:00:00 AM,,400023.873050,143330.780190,38.95788303953530,-76.99972456337740,N/A,Citywide Pavement Restoration,Paul Stephenson,7136,Rodney,N/A,202-6714591
Minnesota Ave,SE,D St,Croffut Pl,3,Pavement Resurface/restoration,2005,100,Completed,0.25,7,MINOR ARTERIAL,7/1/2007 12:00:00 AM,,7/5/2005 12:00:00 AM,,403833.588550,135350.074110,38.88598191343480,-76.95581433319590,,Restoration Of NHS/STP Routes (Various Locations),Zohra Dorriz,8367,Ali Shakeri,,671-4612
Minnesota Ave,SE,Pennsylvania Ave (E),D St,19,Pavement Resurface/restoration,2005,100,Completed,1.09,7,MINOR ARTERIAL,,,7/5/2005 12:00:00 AM,,403340.242240,134477.237180,38.87812107400850,-76.96150484895020,,Restoration Of NHS/STP Routes (Various Locations),Zohra Dorriz,8525,Ali Shakeri,,671-4612
Ames St,NE,41st St,42nd St,1,Pavement Resurface/restoration,2005,100,Completed,0.11,7,LOCAL,7/1/2008 12:00:00 AM,,7/5/2005 12:00:00 AM,INFORMATION PROVIDED BY SYLVESTER (TEAM 4) (Updated a black one),404892.970880,135894.664380,38.89088252951550,-76.943600093174,,CITYWIDE PAVEMENT RESTORATION CONTRACT,,4030,,,
Barker St,SE,Cul De Sac,Southern Ave,1,Pavement Resurface/restoration,2004,100,Completed,0.10,7,LOCAL,3/31/2004 12:00:00 AM,,7/6/2005 12:00:00 AM,,405281.615940,133640.704670,38.87057573924120,-76.93913761301580,,,,3608,,,
D St,NW,5th St,6th St,1,Pavement Resurface/restoration,2004,100,Completed,0.05,6,COLLECTOR,4/4/2005 12:00:00 AM,7/7/2005 12:00:00 AM,7/8/2005 12:00:00 AM,,398315.343610,136327.488120,38.89479356775660,-77.01941962651480,,Fedral Aid Citywide Pavement Restoration,Mohamed Abdullahi,5597,Said Cherifi,said.cherifi@dc.gov,202-671-4611
4th St,SE,Mississippi Ave (E),Mississippi Ave (E),0,Traffic Signal Work,2004,100,Completed,0,8,COLLECTOR,,,7/11/2005 12:00:00 AM,,399934.130010,129833.130010,38.83629132571310,-77.00075868437280,,,,8585,,,
4th St,SE,Valley Ave  Xenia St,Valley Ave  Xenia St,0,Traffic Signal Work,2004,100,Completed,0,8,COLLECTOR,,,7/11/2005 12:00:00 AM,,399954.1775,129467.514610,38.832997695994,-77.00052775491620,,,,8586,,,
1st St,SE,Atlantic St,Atlantic St,0,Traffic Signal Work,2004,100,Completed,0,8,COLLECTOR,,,7/11/2005 12:00:00 AM,,399488.990010,129268.680020,38.83120635501150,-77.00588534603930,,,,8587,,,
Wheeler Rd,SE,Mississippi Ave,Mississippi Ave,0,Traffic Signal Work,2004,100,Completed,0,8,MINOR ARTERIAL,,,7/11/2005 12:00:00 AM,,400558.88,130112.170010,38.83880486963380,-76.99356264590020,,,,8588,,,
Wheeler Rd,SE,Valley Ave,Valley Ave,0,Traffic Signal Work,2004,100,Completed,0,8,MINOR ARTERIAL,,,7/11/2005 12:00:00 AM,,400590.610010,129879.370010,38.83670768091990,-76.99319736956990,,,,8589,,,
Livingston Rd,SE,Atlantic St  Valley Ave,Atlantic St  Valley Ave,0,Traffic Signal Work,2004,100,Completed,0,8,LOCAL,,,7/11/2005 12:00:00 AM,,399692.810010,129241.940020,38.83096556347370,-77.00353792162350,,,,8590,,,
Marion St,NW,P St,Rhode Island Ave,2,Pavement Resurface/restoration,2004,100,Completed,0.22,2,LOCAL,4/4/2005 12:00:00 AM,,7/11/2005 12:00:00 AM,,398185.4663,138141.958460,38.91113869932940,-77.02092156143190,POKA-2003-B-0048-JJ,Citywide Pavement Restoration Contract (Local Streets),Maduabuchi Udeh,4453,Michael Jelen,Michael.Jelen@dc.gov,202-671-4542
H St,NW,New Jersey Ave,3rd St (N),2,Pavement Resurface/restoration,2004,100,Completed,0.14,6,MINOR ARTERIAL,3/31/2004 12:00:00 AM,7/18/2005 12:00:00 AM,7/18/2005 12:00:00 AM,,398781.844830,136927.5990,38.90020035422930,-77.01404316720370,,Fedral Aid Citywide Pavement Restoration,Mohamed Abdullahi,4456,Said Cherifi,said.cherifi@dc.gov,202-671-4611
38th St,NW,Upton St,Van Ness St,1,Pavement Resurface/restoration,2004,100,Completed,0.07,3,LOCAL,3/31/2004 12:00:00 AM,7/18/2005 12:00:00 AM,7/18/2005 12:00:00 AM,,393532.250040,141647.025060,38.94269150456540,-77.07460612662090,N/A,Citywide Pavement Restoration,Paul Stephenson,3907,Madibo,N/A,202-671-4591
27th St,NW,Q St,Mill Rd,1,Pavement Resurface/restoration,2004,100,Completed,0.03,2,LOCAL,4/4/2005 12:00:00 AM,,7/19/2005 12:00:00 AM,,395244.061590,138105.650430,38.910800629696,-77.05483568097560,POKA-2003-B-0048-JJ,Citywide Pavement Restoration Contract (Local Streets),Maduabuchi Udeh,4920,Michael Jelen,Michael.Jelen@dc.gov,202-671-4542
43rd Pl,NW,Ellicott St,Fessenden St,1,Pavement Resurface/restoration,2004,100,Completed,0.10,3,LOCAL,3/31/2004 12:00:00 AM,7/19/2005 12:00:00 AM,7/19/2005 12:00:00 AM,,392633.142970,142904.325250,38.95401052895160,-77.08499091131430,N/A,Citywide Pavement Restoration,Paul Stephenson,4505,Rodney Olive,N/A,202-671-4591
Bataan St,NW,Rhode Island Ave,Massachusetts Ave,2,Pavement Resurface/restoration,2004,100,Completed,0.06,2,LOCAL,3/31/2004 12:00:00 AM,,7/19/2005 12:00:00 AM,Added to IDIQ04 per Team 1,396733.533310,137709.889690,38.90724227890460,-77.03766028244620,POKA-2003-B-0048-JJ,Citywide Pavement Restoration Contract (Local Streets),Maduabuchi Udeh,3954,Michael Jelen,Michael.Jelen@dc.gov,202-671-4542
Garrison St,NW,34th St,36th St,1,Pavement Resurface/restoration,2005,100,Completed,0.09,3,LOCAL,7/1/2007 12:00:00 AM,,7/20/2005 12:00:00 AM,,394094.727320,143068.795810,38.95550316514630,-77.06813013864820,N/A,Citywide Pavement Restoration,Paul Stephenson,6883,Rodney Olive,N/A,202-671-4591
Ellicott St,NW,41st St,42nd St  Wisconsin Ave,1,Pavement Resurface/restoration,2004,100,Completed,0.09,3,LOCAL,,,8/5/2005 12:00:00 AM,,392967.6693,142826.7617,38.95331455790070,-77.08113071138440,,,,9897,,,
Sargent Rd,NE,Michigan Ave,Upshur St,2,Pavement Resurface/restoration,2005,100,Completed,0.12,5,MINOR ARTERIAL,7/1/2006 12:00:00 AM,,8/6/2005 12:00:00 AM,,401063.012320,141568.278210,38.942005295225,-76.98773816856120,,,,8245,,,
Maud St,NW,Macomb St,Loughboro Rd,3,Pavement Resurface/restoration,2004,100,Completed,0.19,3,LOCAL,3/31/2004 12:00:00 AM,,8/6/2005 12:00:00 AM,,390945.604850,140759.302240,38.93467179059830,-77.10443159461570,N/A,Citywide Pavement Restoration,Paul Stephenson,4515,Rodeny,N/A,202-671-4591
Monroe St,NE,10th St,18th St,7,Pavement Resurface/restoration,2005,100,Completed,0.70,5,MINOR ARTERIAL,8/2/2005 12:00:00 AM,,8/8/2005 12:00:00 AM,,401632.889150,140572.495810,38.933034118441,-76.98116701753470,,,,6748,,,
18th St,NE,Monroe St,Newton St,1,Pavement Resurface/restoration,2004,100,Completed,0.07,5,COLLECTOR,7/1/2005 12:00:00 AM,8/3/2005 12:00:00 AM,8/9/2005 12:00:00 AM,,401764.098940,140635.670560,38.93360296208730,-76.97965354261670,,Fedral Aid Citywide Pavement Restoration,Mohamed Abdullahi,5427,Said Cherifi,said.cherifi@dc.gov,202-671-4611
A St,NE,2nd St,4th St,2,Pavement Resurface/restoration,2005,100,Completed,0.16,6,LOCAL,4/4/2005 12:00:00 AM,,8/9/2005 12:00:00 AM,,399822.480960,135899.108160,38.89093615887660,-77.00204621373220,Dan's Projects,,,7512,,,
Dumbarton Rock Ct,NW,P St,West Lane Keys,1,Pavement Resurface/restoration,2004,100,Completed,0.03,2,LOCAL,4/4/2005 12:00:00 AM,,8/10/2005 12:00:00 AM,,394726.190010,137964.580640,38.90952687020790,-77.06080562375680,POKA-2003-B-0048-JJ,Citywide Pavement Restoration Contract(Local Streets),Maduabuchi Udeh,5029,Michael Jelen,Michael.Jelen@dc.gov,202-671-4542
West Lane Keys,NW,Cul De Sac (E),Dumbarton Rock Ct,1,Pavement Resurface/restoration,2005,100,Completed,0.02,2,LOCAL,7/1/2006 12:00:00 AM,,8/10/2005 12:00:00 AM,,394742.839860,137990.247070,38.90975818190260,-77.06061385196990,POKA-2003-B-0048-JJ,Citywide Pavement Restoration (Local Streets),Maduabuchi Udeh,5047,Michael Jelen,Michael.Jelen@dc.gov,202-671-4542
West Lane Keys,NW,Dumbarton Rock Ct,Cul De Sac (W),1,Pavement Resurface/restoration,2004,100,Completed,0.01,2,LOCAL,4/4/2005 12:00:00 AM,,8/10/2005 12:00:00 AM,,394717.905020,137989.9608,38.90975545358670,-77.06090134267530,POKA-2003-B-0048-JJ,Citywide Pavement Restoration Contract(Local Streets),Maduabuchi Udeh,5853,Michael Jelen,Michael.Jelen@dc.gov,202-671-4542
Olive St,NW,27th St,28th St,1,Pavement Resurface/restoration,2004,100,Completed,0.08,2,LOCAL,4/4/2005 12:00:00 AM,,8/12/2005 12:00:00 AM,,395106.536310,137582.637530,38.90608839515610,-77.05641761188590,POKA-2003-B-0048-JJ,Citywide Pavement Restoration (Local Streets),Maduabuchi Udeh,3514,Michael Jelen,Michael.Jelen@dc.gov,202-671-4542
Maryland Ave,NE,2nd St,C St (W),2,Pavement Resurface/restoration,2004,100,Completed,0.18,6,COLLECTOR,4/4/2005 12:00:00 AM,,8/12/2005 12:00:00 AM,,399822.786010,136078.010560,38.89254777825370,-77.00204274364820,,Federal Aid city wide pavement restoration,Mohamed Abdullahi,5628,Said Cherifi,said.cherifi@dc.gov,202-671-4611
Fort Lincoln Dr,NE,Commodore Joshua Barney Dr,Summit Ct,1,Pavement Resurface/restoration,2004,100,Completed,0.07,5,COLLECTOR,7/1/2005 12:00:00 AM,,8/13/2005 12:00:00 AM,,403691.945350,140037.569280,38.92820909687860,-76.95742170299780,,Fedral Aid Citywide Pavement Restoration,Mohamed Abdullahi,5476,Said Cherifi,said.cherifi@dc.gov,202-671-4611
Fort Lincoln Dr,NE,Summit Ct,33rd Pl,2,Pavement Resurface/restoration,2004,100,Completed,0.59,5,COLLECTOR,7/1/2005 12:00:00 AM,,8/13/2005 12:00:00 AM,,403562.951230,139544.391490,38.92376692866170,-76.95891192020740,,FedAid_6YR_CIP,Mohamed Abdullahi,4819,Said Cherifi,said.cherifi@dc.gov,202-671-4611
Nannie Helen Burroughs Ave,NE,49th St,50th St (E),3,Pavement Resurface/restoration,2004,100,Completed,0.11,7,MINOR ARTERIAL,4/4/2005 12:00:00 AM,,4/12/2005 12:00:00 AM,,406017.046370,136733.951360,38.89843615777880,-76.93063584310270,,,,5714,,,
Nannie Helen Burroughs Ave,NE,54th Pl,55th St,1,Pavement Resurface/restoration,2004,100,Completed,0.03,7,MINOR ARTERIAL,4/4/2005 12:00:00 AM,,4/12/2005 12:00:00 AM,,406748.646720,136726.024540,38.89835943800580,-76.92220207900620,,,,5715,,,
20th St,NW,Wyoming Ave,Kalorama Rd,1,Pavement Resurface/restoration,2004,100,Completed,0.07,1,LOCAL,3/31/2004 12:00:00 AM,,4/14/2005 12:00:00 AM,,396014.906910,138980.603970,38.91868633589080,-77.04595296110140,POKA-2003-B-0048-JJ,Citywide Pavement Restoration Contract (Local Streets),Maduabuchi Udeh,4476,Michael Jelen,Michael.Jelen@dc.gov,202-671-4542
16th St,NW,Piney Branch Pky,Arkansas Ave,1,Pavement Resurface/restoration,2005,100,Completed,0.06,4,PRINCIPAL ARTERIAL,,,4/19/2005 12:00:00 AM,,396840.405910,141198.403580,38.93866831858250,-77.036444166258,,VMS,,8483,,,
I St,NE,13th St,Florida Ave,1,Pavement Resurface/restoration,2004,100,Completed,0.08,6,LOCAL,6/4/2005 12:00:00 AM,,4/20/2005 12:00:00 AM,,401078.765570,137051.537210,38.90131701600210,-76.987563552836,,,,5578,,,
G St,NE,13th St,Maryland Ave,1,Pavement Resurface/restoration,2005,100,Completed,0.10,6,LOCAL,,,4/20/2005 12:00:00 AM,,401092.1855,136786.066490,38.89892554409780,-76.98740926454560,,,,6976,,,
E St,NE,23rd Pl,25th Pl,2,Pavement Resurface/restoration,2005,100,Completed,0.11,7,LOCAL,6/1/2006 12:00:00 AM,,4/20/2005 12:00:00 AM,This location is in Ward 7  but It was paved by team3.,402364.449250,136473.876060,38.89611071826240,-76.97274365874610,,CIP_2004-2009,,4039,,,
G St,NE,14th St,14th Pl,1,Pavement Resurface/restoration,2004,100,Completed,0.05,6,LOCAL,8/4/2005 12:00:00 AM,,4/20/2005 12:00:00 AM,,401297.974940,136784.113950,38.89890767514230,-76.98503692365110,,,,5554,,,
G St,NE,14th Pl,Gales St,1,Pavement Resurface/restoration,2004,100,Completed,0.05,6,LOCAL,8/4/2005 12:00:00 AM,,4/20/2005 12:00:00 AM,,401378.555140,136783.984760,38.89890638867760,-76.98410799406430,,,,5556,,,
E St,NW,19th St (N),20th St (N)  E St Expy (N),1,Pavement Resurface/restoration,2005,100,Completed,0.08,2,PRINCIPAL ARTERIAL,,,4/21/2005 12:00:00 AM,,396166.390230,136461.091290,38.89599036920720,-77.04419211043680,,,,8522,,,
20th St,NW,E St Expy (S)  E St (S),E St (N)  E St Expy (N),1,Pavement Resurface/restoration,2005,100,Completed,0.04,2,MINOR ARTERIAL,,,4/21/2005 12:00:00 AM,,396103.468760,136430.273440,38.89571247415030,-77.044917265621,,,,8523,,,
Connecticut Ave,NW,Macomb St,Ordway St,2,Pavement Resurface/restoration,2005,100,Completed,0.16,3,PRINCIPAL ARTERIAL,,,4/25/2005 12:00:00 AM,,394978.763230,140740.828960,38.93453768371120,-77.05791382954410,,VMS,,8485,,,
Carpenter St,SE,35th St,Highwood Dr (E),1,Reconstruction,1999,100,Completed,0.10,7,LOCAL,3/31/2004 12:00:00 AM,12/16/2003 12:00:00 AM,4/29/2005 12:00:00 AM,2 Year CIP 2001 - 2003,403967.125570,133626.566910,38.87045529291450,-76.95428514320320,FY-04 per Sylvester,Local Street Upgr-W7,Sylvester Okpala,2386,,,
Eads St,NE,42nd St,44th St,1,Pavement Resurface/restoration,2005,100,Completed,0.19,7,LOCAL,,,4/29/2005 12:00:00 AM,Information provided by Sylvester (Team 4),405127.1032,136437.833760,38.89577426453070,-76.94089726262080,,CITY WIDE PAVEMENT RESTORATION CONTRACT (LOCAL STREETS),,8733,,,
Eads St,NE,44th St,45th St,1,Pavement Resurface/restoration,2005,100,Completed,0.08,7,LOCAL,,,4/29/2005 12:00:00 AM,INFORMATION PROVIDED BY SYLVESTER (TEAM 4),405337.181410,136403.344350,38.895462321056,-76.93847585245860,,,,8734,,,
45th St,NE,Eads St,Foote St,3,Pavement Resurface/restoration,2005,100,Completed,0.15,7,LOCAL,,,4/29/2005 12:00:00 AM,INFORMATION PROVIDED BY SYLVESTER (TEAM 4),405400.178910,136512.139960,38.89644200666190,-76.937748796276,,,,8735,,,
Foote St,NE,55th St,58th St,3,Upgrading,1999,100,Completed,0.23,7,LOCAL,9/6/2002 12:00:00 AM,6/27/2004 12:00:00 AM,4/30/2005 12:00:00 AM, Ongoing Activities: Only AC Surface remains.,406954.075170,136591.326110,38.89714442514420,-76.91983527917740,,Local Street Upgr-W7,Sylvester Okpala,2662,,,
F St,SE,51st St,53rd St,1,Upgrading,1999,100,Completed,0.13,7,LOCAL,3/15/2002 12:00:00 AM,10/15/2004 12:00:00 AM,4/30/2005 12:00:00 AM,Ongoing Activities: Only AC Surface placement remains.,406246.111460,134851.094550,38.88147308601420,-76.92801231163150,,Local Street Upgr-W7,,2568,,,
Nannie Helen Burroughs Ave,NE,57th St,Eastern Ave,3,Pavement Resurface/restoration,2004,100,Completed,0.14,7,MINOR ARTERIAL,4/4/2005 12:00:00 AM,,5/2/2005 12:00:00 AM,,407129.199590,136727.267230,38.89836762868390,-76.91781508190740,,,,5716,,,
Texas Ave,SE,Burns St (W),East Capitol St,11,Pavement Resurface/restoration,2004,100,Completed,0.67,7,COLLECTOR,4/4/2005 12:00:00 AM,,5/2/2005 12:00:00 AM,,405152.342020,135314.345630,38.88565331861950,-76.940614746867,,,,5922,,,
Q St,NW,22nd St,Florida Ave (W),1,Pavement Resurface/restoration,2004,100,Completed,0.01,2,MINOR ARTERIAL,4/4/2005 12:00:00 AM,,5/3/2005 12:00:00 AM,,395766.998750,138141.829020,38.91112921284810,-77.04880647152370,POKA-2004-B-0016-JJ,Federal Aid Citywide Pavement Restoration Contract,Maduabuchi Udeh,5237,Michael Jelen,Michael.Jelen@dc.gov,202-671-4542
50th St,NE,Fitch Pl,Nannie Helen Burroughs Ave,2,Upgrading,1999,100,Completed,0.16,7,LOCAL,3/31/2004 12:00:00 AM,11/20/2003 12:00:00 AM,4/30/2005 12:00:00 AM,Ongoing Activities:  Only AC surface placement remains.,406083.421350,136606.775870,38.89729005844390,-76.92987180277580,FY-04 per Sylvester,Local Street Upgr-W7,,2571,,,
Lee St,NE,44th St,45th St,2,Upgrading,1999,100,Completed,0.09,7,LOCAL,3/31/2004 12:00:00 AM,10/29/2004 12:00:00 AM,4/30/2005 12:00:00 AM,Ongoing activities:  Water line installation  catch basin and storm sewer installation.,405387.606530,137465.989660,38.90503470068770,-76.93788624429150,,Local Street Upgr-W7,,2588,,,
17th St,NW,Seaton St,Florida Ave,2,Pavement Resurface/restoration,2004,100,Completed,0.07,1,MINOR ARTERIAL,4/4/2005 12:00:00 AM,,5/3/2005 12:00:00 AM,,396663.857910,138909.001470,38.91804402026140,-77.03846942129940,POKA-2004-B-0016-JJ,Federal Aid City Wide Pavement Restoration Contract,Maduabuchi Udeh,5187,Michael Jelen,Michael.Jelen@dc.gov,202-671-4542
Florida Ave,NW,19th St,T St (W),1,Pavement Resurface/restoration,2004,100,Completed,0.04,1/2,MINOR ARTERIAL,4/4/2005 12:00:00 AM,,5/3/2005 12:00:00 AM,,396205.5094,138651.470970,38.91572224109710,-77.04375326431760,POKA-2004-B-0016-JJ,Federal Aid Citywide Pavement Restoration Contract,Maduabuchi Udeh,5199,Michael Jelen,Michael.Jelen@dc.gov,202-671-4542
15th St,NW,Caroline St,U St,1,Pavement Resurface/restoration,2004,100,Completed,0.05,2,MINOR ARTERIAL,4/4/2005 12:00:00 AM,,5/4/2005 12:00:00 AM,,397005.189120,138753.5799,38.91664516101960,-77.03453281602820,POKA-2004-B-0016-JJ,Federal Aid City Wide Pavement Restoration Contract,Maduabuchi Udeh,5206,Michael Jelen,Michael.Jelen@dc.gov,202-671-4542
G St,SE,3rd St,4th St,1,Pavement Resurface/restoration,2004,100,Completed,0.08,6,LOCAL,6/4/2005 12:00:00 AM,,5/4/2005 12:00:00 AM,,399886.385090,134826.361430,38.88127245861970,-77.00130943082640,,CIP_2004-2009,,4668,,,
Seward Sq,SE,5th St (N),North Carolina Ave (E),1,Pavement Resurface/restoration,2004,100,Completed,0.06,6,LOCAL,5/3/2005 12:00:00 AM,,5/4/2005 12:00:00 AM,,400088.065850,135410.109370,38.88653108719750,-76.99898495155290,,,,5661,,,
12th St,SE,Pennsylvania Ave,G St,1,Pavement Resurface/restoration,2005,100,Completed,0.07,6,LOCAL,4/27/2005 12:00:00 AM,,5/4/2005 12:00:00 AM,,400846.415930,134880.337560,38.881758296474,-76.99024484850390,,,,7317,,,
A St,SE,9th St,North Carolina Ave,1,Pavement Resurface/restoration,2004,100,Completed,0.04,6,LOCAL,,,5/5/2005 12:00:00 AM,,400570.725980,135647.598040,38.88867029413350,-76.99342160565010,,,,5058,,,
Sheridan Cir,NW,23rd St,23rd St,3,Pavement Resurface/restoration,2004,100,Completed,0.14,2,PRINCIPAL ARTERIAL,4/4/2005 12:00:00 AM,,5/5/2005 12:00:00 AM,,395639.452950,138244.833570,38.91205648912870,-77.05027772741490,POKA-2004-B-0016-JJ,Federal Aid City Wide Pavement Restoration Contract,Maduabuchi Udeh,5243,Michael Jelen,Michael.Jelen@dc.gov,202-671-4542
L St,SE,5th St,7th St,1,Pavement Resurface/restoration,2004,100,Completed,0.18,6,LOCAL,5/5/2005 12:00:00 AM,,5/5/2005 12:00:00 AM,,400186.170210,134410.486040,38.877526078083,-76.99785446986450,,,,5648,,,
Virginia Ave,SE,K St,8th St,1,Pavement Resurface/restoration,2004,100,Completed,0.04,6,LOCAL,5/4/2005 12:00:00 AM,,5/5/2005 12:00:00 AM,,400405.720830,134497.2151,38.87830729368290,-76.99532419393090,,,,5667,,,
Maryland Ave,NE,Benning Rd,M St,9,Pavement Resurface/restoration,2004,100,Completed,0.81,5,COLLECTOR,,,5/5/2005 12:00:00 AM,,402013.082080,137219.4439,38.90282793587920,-76.97679188128870,,Fedral Aid Citywide Pavement Restoration,Mohamed Abdullahi,5639,Said Cherifi,said.cherifi@dc.gov,202-671-4611
Chillum Pl,NE,3rd St (N),2nd St,1,Pavement Resurface/restoration,2005,100,Completed,0.08,4,LOCAL,8/1/2008 12:00:00 AM,,6/29/2005 12:00:00 AM,,399696.541660,143540.851840,38.959775367226,-77.00350126018440,,Citywide Pavement Restoration,Paul Stephenson,7137,Hill  Obrient,,202-6714591
Woodley Pl,NW,Calvert St,Woodley Rd,1,Regular Cover,1999,100,Completed,0.14,1,LOCAL,3/31/2004 12:00:00 AM,,6/29/2005 12:00:00 AM,2 Year CIP 2001 - 2003,395594.662330,139618.256990,38.92442851326270,-77.05080298229030,,,,2463,,,
Whittier St,NW,4th St,5th St,1,Regular Cover,1999,100,Completed,0.09,4,LOCAL,4/5/2004 12:00:00 AM,6/29/2005 12:00:00 AM,6/29/2005 12:00:00 AM,2 Year CIP 2001 - 2003,398356.680030,144817.679490,38.97127586071750,-77.01896345760060,N/A,Citywide Pavement Restoration,Paul Stephenson,2500,,N/A,
30th St,NW,Cul De Sac (N),Ordway St,1,Pavement Resurface/restoration,2004,100,Completed,0.07,3,LOCAL,3/31/2004 12:00:00 AM,6/29/2005 12:00:00 AM,6/29/2005 12:00:00 AM,,394704.5749,140833.1945,38.93536813031240,-77.06107696867720,WASA FY-06 LSR,Citywide Pavement Restoration,Paul Stephenson,4352,Rodney Olive and Deguzman,N/A,202-671-4591
Adams Mill Rd,NW,18th St,Calvert St,1,Pavement Resurface/restoration,2004,100,Completed,0.09,1,COLLECTOR,3/31/2004 12:00:00 AM,,5/5/2005 12:00:00 AM,,396280.876250,139464.060480,38.92304263421340,-77.04288863133940,POKA-2004-B-0016-JJ,Federal Aid City wide Pavement Restoration Corporation,Maduabuchi Udeh,3138,Michael Jelen,Michael.Jelen@dc.gov,202-671-4542
15th St,NW,V St,New Hampshire Ave,1,Pavement Resurface/restoration,2004,100,Completed,0.07,1,MINOR ARTERIAL,4/4/2005 12:00:00 AM,,5/6/2005 12:00:00 AM,,397001.113470,138972.959610,38.91862139171210,-77.03458077011730,,,,5185,,,
Sherman Ave,NW,Park Rd (S),New Hampshire Ave,1,Pavement Resurface/restoration,2004,100,Completed,0.03,1,MINOR ARTERIAL,4/4/2005 12:00:00 AM,,5/6/2005 12:00:00 AM,,397677.597560,140517.269920,38.93253507489150,-77.02678532013320,POKA-2004-B-0016-JJ,Federal Aid City Wide Pavement Restoration Contract,Maduabuchi Udeh,5197,Michael Jelen,Michael.Jelen@dc.gov,202-671-4542
E St,NE,9th St,Maryland Ave,1,Pavement Resurface/restoration,2004,100,Completed,0.03,6,LOCAL,5/6/2005 12:00:00 AM,,5/6/2005 12:00:00 AM,,400565.996220,136479.613880,38.89616540421320,-76.99347543715280,,,,5538,,,
D St,SE,2nd St (S),5th St,3,Pavement Resurface/restoration,2004,100,Completed,0.22,6,LOCAL,5/5/2005 12:00:00 AM,,5/6/2005 12:00:00 AM,,399868.590620,135159.595230,38.88427435478810,-77.00151457878660,,,,5601,,,
9th St,NE,A St,Massachusetts Ave,1,Pavement Resurface/restoration,2004,100,Completed,0.02,6,LOCAL,5/5/2005 12:00:00 AM,,5/6/2005 12:00:00 AM,,400541.174620,135915.439520,38.89108312921480,-76.993762014368,,,,5859,,,
10th St,NE,Massachusetts Ave,A St,1,Pavement Resurface/restoration,2004,100,Completed,0.01,6,LOCAL,5/6/2005 12:00:00 AM,,5/6/2005 12:00:00 AM,,400638.019970,135891.7150,38.89086934494330,-76.99264572407170,,,,5860,,,
Florida Ave,NW,9th St (N),Vermont Ave,1,Federal Aid Resurfacing,2004,100,Completed,0.05,1,MINOR ARTERIAL,4/4/2005 12:00:00 AM,,5/9/2005 12:00:00 AM,,397900.743260,138911.379650,38.91806926867670,-77.02420676845140,POKA-2004-B-0016-JJ,Federal Aid City Wide Pavement Restoration Contract,Maduabuchi Udeh,5882,Michael Jelen,Michael.Jelen@dc.gov,202-671-4542
17th St,NW,M St,Massachusetts Ave,3,Pavement Resurface/restoration,2004,100,Completed,0.16,2,MINOR ARTERIAL,4/4/2005 12:00:00 AM,,5/10/2005 12:00:00 AM,,396660.856030,137659.588930,38.90678887914410,-77.03849796057190,POKA-2004-B-0016-JJ,Federal Aid City Wide Pavement Restoration Contract,Maduabuchi Udeh,5208,Michael Jelen,Michael.Jelen@dc.gov,202-671-4542
L St,NW,6th St,7th St,1,Pavement Resurface/restoration,2004,100,Completed,0.11,2,MINOR ARTERIAL,4/4/2005 12:00:00 AM,,5/10/2005 12:00:00 AM,,398186.631520,137367.906750,38.90416577626720,-77.02090608257260,POKA-2004-B-0016-JJ,Federal Aid City Wide Pavement Restoration Contract,Maduabuchi Udeh,5224,Michael Jelen,Michael.Jelen@dc.gov,202-671-4542
E St,NE,Maryland Ave,10th St,1,Pavement Resurface/restoration,2004,100,Completed,0.03,6,LOCAL,5/9/2005 12:00:00 AM,,5/10/2005 12:00:00 AM,,400614.008090,136475.860920,38.89613156395780,-76.99292198016430,,,,5051,,,
V St,SE,Cul De Sac,Shannon Pl,1,Pavement Resurface/restoration,2004,100,Completed,0.03,8,LOCAL,3/31/2004 12:00:00 AM,,5/10/2005 12:00:00 AM,,400813.580860,133127.408030,38.865967237758,-76.990625355439,,,,4677,,,
E St,NE,17th St,20th St,4,Pavement Resurface/restoration,2004,100,Completed,0.25,6,LOCAL,5/9/2005 12:00:00 AM,,5/10/2005 12:00:00 AM,,401868.028030,136473.842940,38.89611161494530,-76.978466186232,,,,4417,,,
G St,NW,20th St,21st St,1,Pavement Resurface/restoration,2004,100,Completed,0.09,2,COLLECTOR,4/4/2005 12:00:00 AM,,5/11/2005 12:00:00 AM,,396028.515230,136719.912410,38.89832131145660,-77.04578296680820,POKA-2004-B-0016-JJ,Federal Aid City Wide Pavement Restoration ,Maduabuchi Udeh,5222,Michael Jelen,Michael.Jelen@dc.gov,202-671-4542
G St,NW,23rd St,24th St,1,Pavement Resurface/restoration,2004,100,Completed,0.07,2,COLLECTOR,4/4/2005 12:00:00 AM,,5/11/2005 12:00:00 AM,,395594.725340,136720.8399,38.89832759978340,-77.05078366780860,POKA-2004-B-0016-JJ,Federal Aid City Wide Pavement Restoration Contract,Maduabuchi Udeh,5223,Michael Jelen,Michael.Jelen@dc.gov,202-671-4542
G St,NW,24th St,Virginia Ave,1,Pavement Resurface/restoration,2005,100,Completed,0.04,2,COLLECTOR,4/4/2005 12:00:00 AM,,5/11/2005 12:00:00 AM,,395508.876540,136720.327390,38.89832254849950,-77.051773322618,POKA-2004-B-0016-JJ,Federal Aid City Wide Pavement Restoration Contract,Maduabuchi Udeh,8694,Michael Jelen,Michael.Jelen@dc.gov,202-671-4542
3rd St,NW,O St,Florida Ave (E),5,Reconstruction,1999,100,Completed,0.37,5,LOCAL,6/15/2002 12:00:00 AM,12/15/2003 12:00:00 AM,5/11/2005 12:00:00 AM,2 Year CIP 2001 - 2003,398683.209310,138124.869730,38.91098564490180,-77.01518255521020,Suspended the construction due to Pepco work,,,2616,,,
Rhode Island Ave,NW,New Jersey Ave,R St,3,Pavement Resurface/restoration,2004,100,Completed,0.19,2,PRINCIPAL ARTERIAL,4/4/2005 12:00:00 AM,,5/12/2005 12:00:00 AM,,398317.867070,138370.430050,38.91319711210630,-77.019395541176,POKA-2004-B-0016-JJ,Federal Aid City Wide Pavement Restoration Contract,Maduabuchi Udeh,5241,Michael Jelen,Michael.Jelen@dc.gov,202-671-4542
Whitehaven Pky,NW,35th St,35th Pl,1,Pavement Resurface/restoration,2004,100,Completed,0.05,2/3,COLLECTOR,4/4/2005 12:00:00 AM,,5/12/2005 12:00:00 AM,,393944.683510,138748.607650,38.91658461108230,-77.06982309621090,POKA-2004-B-0016-JJ,Federal Aid City Wide Pavement Restoration Contract,Maduabuchi Udeh,5244,Michael Jelen,Michael.jelen@dc.gov,202-671-4542
17th St,NW,L St,De Sales St,1,Pavement Resurface/restoration,2004,100,Completed,0.07,2,MINOR ARTERIAL,4/4/2005 12:00:00 AM,,5/12/2005 12:00:00 AM,,396659.971710,137377.715010,38.90424965721920,-77.03850678533840,POKA-2004-B-0016-JJ,Federal Aid City Wide Pavement Restoration Contract,Maduabuchi Udeh,5207,Michael Jelen,Michael.Jelen@dc.gov,202-671-4542
Q St,NW,Wisconsin Ave (N),35th St,3,Pavement Resurface/restoration,2005,100,Completed,0.22,2,MINOR ARTERIAL,4/4/2005 12:00:00 AM,,5/12/2005 12:00:00 AM,,394176.051770,138099.359450,38.91073753032840,-77.06714971193630,POKA-2004-B-0016-JJ,Federal Aid City Wide Pavement Restoration Contract,Maduabuchi Udeh,6479,Michael Jelen,Michael.Jelen@dc.govM,202-671-4542
Prospect St,NW,Wisconsin Ave,Potomac St,1,Pavement Resurface/restoration,2005,100,Completed,0.13,2,COLLECTOR,7/1/2006 12:00:00 AM,,5/12/2005 12:00:00 AM,,394446.812790,137573.441950,38.90600163773090,-77.06402360480520,POKA-2004-B-0016-JJ,Federal Aid City Wide Pavement Restoration Contract,Maduabuchi Udeh,7914,Michael Jelen,Michael.Jelen@dc.gov,202-671-4542
1st St,NE,Victor St,Hawaii Ave,3,Reconstruction,1999,100,Completed,0.09,5,LOCAL,4/7/2003 12:00:00 AM,,6/9/2005 12:00:00 AM,2 Year CIP 2001 - 2003,399512.500320,141822.9632,38.94430007838170,-77.00562348261940,,,,2615,,,
Quebec Pl,NW,10th St,13th St,1,Pavement Resurface/restoration,2003,100,Completed,0.13,4,LOCAL,4/12/2003 12:00:00 AM,,6/9/2005 12:00:00 AM,2 Year CIP 2001 - 2003,397533.0919,141004.047490,38.93691971960560,-77.02845371921110,WASA FY-06 LSR,,,2499,,,
24th Pl,SE,S St,T St,1,Pavement Resurface/restoration,2005,100,Completed,0.07,7,LOCAL,,,6/10/2005 12:00:00 AM,INFORMATION PROVIDED BY SYLVESTER (TEAM 4),402413.682780,133328.251070,38.86777357832620,-76.97218716383410,,CITYWIDE PAVEMENT RESTORATION CONTRACT (LOCAL STREETS),,8738,,,
T St,SE,24th Pl,Naylor Rd,1,Pavement Resurface/restoration,2005,100,Completed,0.11,7,LOCAL,7/1/2006 12:00:00 AM,,6/10/2005 12:00:00 AM,INFORMATION PROVIDED BY SYLVESTER (TEAM 4),402501.240380,133273.092120,38.86727643927840,-76.97117843945190,,CITY WIDE PAVEMETN RESTORATION CONTRACT (LOCAL STREETS),,4441,,,
8th St,NW,Van Buren St,Whittier St,1,Reconstruction,1999,100,Completed,0.10,4,LOCAL,4/5/2004 12:00:00 AM,,6/11/2005 12:00:00 AM,2 Year CIP 2001 - 2003,397901.834010,144742.834440,38.97060066984320,-77.02421202548270,,,,2507,,,
Delaware Ave,SW,M St,Canal St,1,Pavement Resurface/restoration,2004,100,Completed,0.26,6,COLLECTOR,4/4/2005 12:00:00 AM,6/10/2005 12:00:00 AM,6/13/2005 12:00:00 AM,,398754.084250,134135.952890,38.87505211182640,-77.01435813562040,,Fedral Aid Citywide Pavement Restoration,Mohamed Abdullahi,4965,Said Cherifi,said.cherifi@dc.gov,202-671-4611
32nd Pl,NW,Worthington St,Aberfoyle Pl,1,Pavement Resurface/restoration,2004,100,Completed,0.25,4,LOCAL,3/31/2004 12:00:00 AM,6/13/2005 12:00:00 AM,6/13/2005 12:00:00 AM,,394828.449210,145394.5120,38.97645841056180,-77.05968260892240,1st Aid to State ,Citywide Pavement Restoration,Paul Stephenson,3905,Rodney,N/A,202-671-4591
Farragut St,NW,9th St,13th St,3,Pavement Resurface/restoration,2003,100,Completed,0.20,4,LOCAL,4/4/2003 12:00:00 AM,,6/15/2005 12:00:00 AM,2 Year CIP 2001 - 2003,397712.456760,142547.126150,38.95082069671120,-77.02639004101690,WASA FY-06 LSR,,,2503,,,
Upton St,NW,Tindall St,45th St,1,Pavement Resurface/restoration,2003,100,Completed,0.05,3,LOCAL,4/12/2003 12:00:00 AM,,6/17/2005 12:00:00 AM,2 Year CIP 2001 - 2003,392433.564820,141595.026880,38.94221431460410,-77.08727898717180,,,,2473,,,
Livingston St,NW,Chevy Chase Pky,39th St,2,Reconstruction,2004,100,Completed,0.30,3,LOCAL,3/31/2004 12:00:00 AM,,6/17/2005 12:00:00 AM,2 Year CIP 2001 - 2003,393565.250170,143911.736960,38.96309287469170,-77.07424671395740,,,,2483,,,
4th St,NE,East Capitol St,C St (N),5,Pavement Resurface/restoration,2005,100,Completed,0.29,6,COLLECTOR,4/4/2005 12:00:00 AM,,8/15/2005 12:00:00 AM,,399950.362940,136010.638360,38.89194088094810,-77.000572160959,Dan's Projects,,,6609,,,
C St,NE,3rd St,4th St (M),1,Pavement Resurface/restoration,2004,100,Completed,0.08,6,LOCAL,4/4/2005 12:00:00 AM,,8/16/2005 12:00:00 AM,ON Hold For WASA's LSR,399886.510970,136192.594680,38.89358000489150,-77.00130820568670,,,,5585,,,
Rhode Island Ave,NE,South Dakota Ave,Eastern Ave  Otis St (N),7,Pavement Resurface/restoration,2005,100,Completed,0.51,5,PRINCIPAL ARTERIAL,7/1/2005 12:00:00 AM,,8/16/2005 12:00:00 AM,,402818.454620,140595.369280,38.93323716644480,-76.96749316489620,,,,8552,,,
30th St,NE,South Dakota Ave (E),Central Ave,2,Pavement Resurface/restoration,2004,100,Completed,0.18,5,LOCAL,3/31/2004 12:00:00 AM,,2/17/2005 12:00:00 AM,Added per Mohamed,403028.711170,139915.643680,38.92711328936660,-76.96507115673890,,,,5897,,,
Bunker Hill Rd,NE,Michigan Ave (E),18th St,1,Pavement Resurface/restoration,2004,100,Completed,0.14,5,COLLECTOR,3/31/2004 12:00:00 AM,,2/17/2005 12:00:00 AM,Location requested at obligation meeting 1/18/2001,401626.289310,141569.413190,38.94201465731780,-76.981240774247,,FedAid_6YR_CIP,,3915,,,
Taylor St,NW,Rock Creek Church Rd,New Hampshire Ave,6,Reconstruction,1999,100,Completed,0.31,4,LOCAL,4/7/2003 12:00:00 AM,,2/18/2005 12:00:00 AM,2 Year CIP 2001 - 2003,398472.015450,141459.952320,38.94102877865020,-77.01762503789590,,,,2515,,,
Franklin St,NE,North Capitol St,Cul De Sac,1,Pavement Resurface/restoration,2004,100,Completed,0.11,5,LOCAL,3/31/2004 12:00:00 AM,,2/18/2005 12:00:00 AM,ON HOLD PER WASA REQUEST,399300.818940,139707.423520,38.92524251798640,-77.008063147335,,CIP_2004-2009,,2924,,,
Connecticut Ave,NW,Jenifer St,Military Rd,3,Pavement Resurface/restoration,2004,100,Completed,0.16,3,PRINCIPAL ARTERIAL,4/4/2005 12:00:00 AM,2/18/2005 12:00:00 AM,2/18/2005 12:00:00 AM,,393696.212540,143570.687750,38.96002156751930,-77.072732483195,N/A,Citywide Pavement Restoration,Paul Stephenson,3144,M. Howard and O. Hill,N/A,202-671-4591
Clifton St,NW,11th St,14th St (S),3,Pavement Resurface/restoration,2004,100,Completed,0.27,1,LOCAL,3/31/2004 12:00:00 AM,,4/1/2005 12:00:00 AM,Added to IDIQ04 per Team 1,397439.840760,139395.289120,38.92242726050920,-77.02952329192440,POKA-2003-B-0048-JJ,Citywide Pavement Restoration Contract (Local Streets),Maduabuchi Udeh,4831,Michael Jelen,Michael.Jelen@dc.gov,202-671-4542
University Pl,NW,Euclid St,Fairmont St,1,Pavement Resurface/restoration,2004,100,Completed,0.07,1,LOCAL,3/31/2004 12:00:00 AM,,4/1/2005 12:00:00 AM,Added to IDIQ04 per Team 1,397041.440480,139564.024030,38.923946027532,-77.03411829851550,POKA-2003-B-0048-JJ,Citywide Pavement Restoration Contract( Local Streets),Maduabuchi Udeh,3510,Michael Jelen,Michael.Jelen@dc.gov,202-671-4542
Clifton St,NW,14th St (N),University Pl,1,Pavement Resurface/restoration,2004,100,Completed,0.11,1,LOCAL,3/31/2004 12:00:00 AM,,4/1/2005 12:00:00 AM,,397139.031290,139417.844190,38.92262951596830,-77.03299226587950,POKA-2003-B-0048-JJ,Citywide Pavement Restoration Contract (Local Streets),Maduabuchi Udeh,4112,Michael Jelen,Michael.Jelen@dc.gov,202-671-4542
Nannie Helen Burroughs Ave,NE,55th St,57th St,3,Pavement Resurface/restoration,2005,100,Completed,0.16,7,MINOR ARTERIAL,12/1/2005 12:00:00 AM,,4/6/2005 12:00:00 AM,,406894.429990,136726.569020,38.89836321159420,-76.92052149517940,,,,8224,,,
Fulton St,NW,38th St,Watson Pl,3,Pavement Resurface/restoration,2004,100,Completed,0.25,3,LOCAL,3/31/2004 12:00:00 AM,4/6/2005 12:00:00 AM,4/6/2005 12:00:00 AM,,393340.426840,139814.606340,38.92618309741320,-77.076801042245,N/A,Citywide Pavement Restoration,PAUL STEPHENSON,4273,Madibo,N/A,202-671-4591
Sigsbee Pl,NE,10th St,12th St,1,Pavement Resurface/restoration,2004,100,Completed,0.13,5,LOCAL,4/4/2005 12:00:00 AM,,4/11/2005 12:00:00 AM,WASA Released this location,400742.349760,141366.756960,38.94019026288220,-76.99143722447680,,,,5831,,,
22nd St,NE,Jackson St,Lawrence St,2,Pavement Resurface/restoration,2004,100,Completed,0.14,5,LOCAL,4/4/2005 12:00:00 AM,,4/11/2005 12:00:00 AM,,402238.976670,140355.585760,38.93107879114770,-76.97417739452440,,WASA,,5905,,,
31st Pl,NW,Utah Ave,Aberfoyle Pl,4,Pavement Resurface/restoration,2004,100,Completed,0.56,4,LOCAL,3/31/2004 12:00:00 AM,4/11/2005 12:00:00 AM,4/11/2005 12:00:00 AM,,394834.602390,145154.347040,38.974294986271,-77.05960978794840,N/A,Citywide Pavement Restoration,Paul Stephenson,4336,Midibo Hylton and William Lester,N/A,(202)6714591
Nebraska Ave,NW,38th St,Davenport St,2,Pavement Resurface/restoration,2004,100,Completed,0.09,3,PRINCIPAL ARTERIAL,3/31/2004 12:00:00 AM,,6/17/2005 12:00:00 AM,,393568.890460,142637.486630,38.951614125088,-77.07419276146710,,,,4237,,,
Nebraska Ave,NW,39th St,38th St,3,Pavement Resurface/restoration,2004,100,Completed,0.23,3,PRINCIPAL ARTERIAL,4/4/2005 12:00:00 AM,,6/18/2005 12:00:00 AM,,393423.666620,142421.042790,38.94966326528030,-77.07586606638370,,,,5268,,,
Park Pl,SE,25th St,27th St,1,Pavement Resurface/restoration,2005,100,Completed,0.11,7,LOCAL,3/31/2004 12:00:00 AM,,6/18/2005 12:00:00 AM,INFORMATION PROVIDED BY SYLVESTER (TEAM 4) (Updated a blue one),402607.424510,133744.677980,38.87152436778460,-76.96995310110050,2nd Aid to State,CITYWIDE PAVEMENT RESTORATION CONTRACT (LOCAL STREETS),,4584,,,
Oliver St,NW,Chevy Chase Pky,Connecticut Ave,1,Regular Cover,2004,100,Completed,0.20,3,LOCAL,3/31/2004 12:00:00 AM,,6/18/2005 12:00:00 AM,2 Year CIP 2001 - 2003,393530.432380,144314.091140,38.96671712391540,-77.07465225182550,,,,2471,,,
Chaplin St,SE,H St (E),Ridge Rd,2,Pavement Resurface/restoration,2005,100,Completed,0.32,7,LOCAL,3/31/2004 12:00:00 AM,,6/20/2005 12:00:00 AM,INFORMATION PROVIDED BY SYLVESTER (TEAM 4),405340.947460,134318.165590,38.87667821850030,-76.93844864632130,,CITYWIDE PAVEMENT RESTORATION CONTRACT (LOCAL STREETS),,4879,,,
Lamont St,NW,16th St,Mount Pleasant St,1,Pavement Resurface/restoration,2004,100,Completed,0.11,1,LOCAL,6/15/2002 12:00:00 AM,,6/20/2005 12:00:00 AM,,396758.681210,140325.187710,38.93080183035140,-77.03738269074890,POKA-2003-B-0048-JJ,Citywide Pavement Restoration Contract (Local Streets),Maduabuchi Udeh,2370,Michael jelen,Michael.Jelen@dc.gov,202-671-4542
Fessenden St,NW,Broad Branch Ter,Connecticut Ave,3,Pavement Resurface/restoration,2005,100,Completed,0.24,3,LOCAL,7/1/2008 12:00:00 AM,,7/20/2005 12:00:00 AM,,394136.963480,142978.912190,38.95469375280360,-77.06764208465350,,Federal,Paul Stephenson,4221,Rodney Olive,,202-671-4591
32nd St,NW,Ellicott St,Fessenden St,1,Pavement Resurface/restoration,2005,100,Completed,0.06,3,LOCAL,7/1/2007 12:00:00 AM,,7/20/2005 12:00:00 AM,,394351.266840,142877.255460,38.95377940638130,-77.06516882190510,N/A,Citywide Pavement Restoration,Paul Stephenson,4500,Rodney Olive,N/A,202-671-4591
Indiana Ave,NW,6th St,7th St,1,Pavement Resurface/restoration,2004,100,Completed,0.13,6,COLLECTOR,3/31/2004 12:00:00 AM,7/11/2005 12:00:00 AM,7/11/2005 12:00:00 AM,2 Year SP 2000 - 2002,398186.3799,136255.445050,38.89414432073760,-77.02090604630660,,Fedral Aid Citywide Pavement Restoration,Mohamed Abdullahi,2782,Said Cherifi,said.cherifi@dc.gov,202-671-4611
Fort Davis St,SE,Pennsylvania Ave,W St,2,Pavement Resurface/restoration,2005,100,Completed,0.13,7,LOCAL,,,7/12/2005 12:00:00 AM,,404305.827270,132922.440060,38.86411063748540,-76.95038655153730,,,,8725,,,
W St,SE,38th St,Fort Davis St,1,Pavement Resurface/restoration,2005,100,Completed,0.10,7,LOCAL,,,7/12/2005 12:00:00 AM,INFORMATION PROVIDED BY SYLVESTER (TEAM 4),404222.6289,132804.9415,38.86305256519310,-76.95134591751970,,CITYWIDE PAVEMENT RESTORATION CONTRACT (LOCAL STREETS),,8741,,,
Minnesota Ave,SE,Randle Cir (N),D St,5,Pavement Resurface/restoration,2004,100,Completed,0.46,7,MINOR ARTERIAL,3/31/2004 12:00:00 AM,,7/13/2005 12:00:00 AM,Duplicated project  (ENTERED BY JASWANT REQUESTED BY MEQUANINT,403553.2969,134848.158710,38.88146164451570,-76.959047549406,FY-04 per Sylvester,FedAid_6YR_CIP,ZAHRA DORRIZ,4809,,,
F St,NW,4th St,6th St,2,Pavement Resurface/restoration,2004,100,Completed,0.21,6,COLLECTOR,4/4/2005 12:00:00 AM,7/12/2005 12:00:00 AM,7/13/2005 12:00:00 AM,,398434.970520,136609.330110,38.89733272427260,-77.01804128717740,,Fedral Aid Citywide Pavement Restoration,Mohamed Abdullahi,3527,Said Cherifi,said.cherifi@dc.gov,202-671-4611
Mississippi Ave,SE,Wheeler Rd,Wheeler Rd,0,Traffic Signal Work,2004,100,Completed,0,8,COLLECTOR,,,7/13/2005 12:00:00 AM,,400558.88,130112.170010,38.83880486963380,-76.99356264590020,,,,8643,,,
Minnesota Ave,SE,Pennsylvania Ave (E),Randle Cir (S),13,Pavement Resurface/restoration,2005,100,Completed,0.55,7,MINOR ARTERIAL,,,7/13/2005 12:00:00 AM,AS REQUESTED BY MEQUNANINT,402920.267740,134203.030910,38.87565241085080,-76.96634607615970,,,ZAHARA DORRIZ,9037,ALI SHAKERI,,202-671-4612
Clay Pl,NE,Minnesota Ave (N),40th St,1,Regular Cover,2004,100,Completed,0.19,7,LOCAL,3/31/2004 12:00:00 AM,,7/13/2005 12:00:00 AM,,404433.267390,136093.567740,38.89267676293820,-76.94889768213460,,CIP_2004-2009,,4032,,,
14th St,NE,Rhode Island Ave,Jackson St,5,Pavement Resurface/restoration,2004,100,Completed,0.31,5,COLLECTOR,3/31/2004 12:00:00 AM,,7/13/2005 12:00:00 AM,2 Year SP 2000 - 2002,401224.380960,139868.476450,38.92669275876230,-76.98587981647630,,FedAid_6YR_CIP,Said Cheriffi,3057,Abdullahi Mohamed,Abdullahi.Mohamed@dc.gov,202 671 4614
4th St,NW,G St,H St,1,Pavement Resurface/restoration,2004,100,Completed,0.10,6,COLLECTOR,4/4/2005 12:00:00 AM,7/13/2005 12:00:00 AM,7/13/2005 12:00:00 AM,,398595.924960,136801.001790,38.89905964381790,-77.01618623453230,,Fedral Aid Citywide Pavement Restoration,Mohamed Abdullahi,5543,Said Cherifi,said.cherifi@dc.gov,202-671-4611
G St,SW,7th St,9th St,1,Pavement Resurface/restoration,2004,100,Completed,0.12,6,LOCAL,,,7/14/2005 12:00:00 AM,Completed but never reported; determined through RoadCare,398003.687580,134827.0303,38.88127622516380,-77.02300783574490,,,,5683,,,
49th Pl,NE,Meade St,Nash St,1,Pavement Resurface/restoration,2004,100,Completed,0.09,7,LOCAL,4/4/2005 12:00:00 AM,,7/14/2005 12:00:00 AM,need a start and finish date.,406014.020130,137644.24,38.90663637875710,-76.930662758985,,,,4025,,,
Girard Pl,NE,Belair Pl,25th St,1,Pavement Resurface/restoration,2004,100,Completed,0.05,5,LOCAL,4/4/2005 12:00:00 AM,,7/15/2005 12:00:00 AM,On Hold for WASA,402469.311490,139888.125380,38.92686714595210,-76.97152257487550,,,,5560,,,
2nd St,NW,H St,New Jersey Ave,1,Pavement Resurface/restoration,2004,100,Completed,0.13,6,COLLECTOR,4/4/2005 12:00:00 AM,7/15/2005 12:00:00 AM,7/17/2005 12:00:00 AM,,398814.498940,137030.782680,38.90112991433010,-77.01366690135860,,Fedral Aid Citywide Pavement Restoration,Mohamed Abdullahi,5541,Said Cherifi,said.cherifi@dc.gov,202-671-4611
Upton St,NW,37th St,38th St,1,Pavement Resurface/restoration,2004,100,Completed,0.12,3,LOCAL,4/4/2005 12:00:00 AM,,7/18/2005 12:00:00 AM,,393627.404980,141594.217950,38.94221649847620,-77.07350801509280,N/A,Citywide Pavement Restoration,Paul Stephenson,5044,Madibo Hytton,N/A,202-671-4591
Upton St,NW,38th St,Wisconsin Ave,1,Pavement Resurface/restoration,2005,100,Completed,0.11,3,LOCAL,5/1/2005 12:00:00 AM,7/18/2005 12:00:00 AM,7/18/2005 12:00:00 AM,Temporary Street,393449.880310,141594.681760,38.94221937095820,-77.07555576933110,N/A,Citywide Pavement Restoration,Paul Stephenson,3482,Modibo Hytton,N/A,202-6714591
Independence Ave,SE,North Carolina Ave,Massachusetts Ave,8,Federal Aid Resurfacing,2004,100,Completed,0.59,6,MINOR ARTERIAL,7/21/2005 12:00:00 AM,,7/21/2005 12:00:00 AM,,400848.064670,135527.876250,38.88759157128990,-76.990225047246,,Street Resurfacing,Abdullahi Mohamed,4822,Morgan Prince,morgan.prince@dc.gov,202-671-4627
34th St,NW,Fessenden St,Garrison St,1,Pavement Resurface/restoration,2004,100,Completed,0.06,3,LOCAL,4/4/2005 12:00:00 AM,7/22/2005 12:00:00 AM,7/22/2005 12:00:00 AM,,394148.929780,143023.775430,38.95509797247360,-77.06750441176410,N/A,Citywide Pavement Restoration,Paul Stephenson,5587,Rodney Olive,N/A,202-671-4591
Blaine St,NE,45th St,46th St,1,Pavement Resurface/restoration,2004,100,Completed,0.06,7,LOCAL,3/31/2004 12:00:00 AM,,7/22/2005 12:00:00 AM,,405441.330050,136006.776410,38.89188925323840,-76.93727842439090,2nd Aid to State,CIP_2004-2009,,4031,,,
Delaware Ave,SW,H St,M St,4,Pavement Resurface/restoration,2004,100,Completed,0.27,6,LOCAL,,,7/25/2005 12:00:00 AM,,398848.142880,134504.884410,38.87837572099570,-77.01327480694990,,,,5886,,,
Kalmia Rd,NW,16th St,Myrtle St,1,Pavement Resurface/restoration,2004,100,Completed,0.15,4,COLLECTOR,4/4/2005 12:00:00 AM,7/26/2005 12:00:00 AM,7/26/2005 12:00:00 AM,,396735.641690,146442.514250,38.98590820400330,-77.03767752851320,N/A,Citywide Pavement Restoration,Paul Stephenson,5293,M. Howard & O. Hill,N/A,202-671-4591
D St,SE,Ridge Rd,Burns St,1,Pavement Resurface/restoration,2004,100,Completed,0.16,7,LOCAL,4/4/2005 12:00:00 AM,,7/26/2005 12:00:00 AM,,404623.339170,135229.942240,38.88489592167220,-76.94671253430190,,,,5635,,,
5th St,NW,Roxboro Pl,Van Buren St,5,Pavement Resurface/restoration,2004,100,Completed,0.30,4,COLLECTOR,3/31/2004 12:00:00 AM,7/27/2005 12:00:00 AM,7/27/2005 12:00:00 AM,,398275.657820,144424.279940,38.96773186800710,-77.01989744196130,N/A,Citywide Pavement Restoration,Paul Stephenson,4757,M. Howard & O. Hill,N/A,202-671-4591
Dexter Ter,NW,Dexter St (E),Dexter St (W),1,Regular Cover,2004,100,Completed,0.13,3,LOCAL,3/31/2004 12:00:00 AM,7/28/2005 12:00:00 AM,7/28/2005 12:00:00 AM,2 Year CIP 2001 - 2003,391981.057720,139697.475330,38.92511659107460,-77.09247648937730,N/A,Citywide Pavement Restoration,Paul Stephenson,2476,Rodney Olive,N/A,202-6714591
Aspen St,NW,Laurel St,5th St,5,Pavement Resurface/restoration,2004,100,Completed,0.32,4,COLLECTOR,4/4/2005 12:00:00 AM,7/28/2005 12:00:00 AM,7/28/2005 12:00:00 AM,,398522.0278,144936.316320,38.97234486305260,-77.01705564592840,WASA FY-06 LSR,Citywide Pavement Restoration,Paul Stephenson,3161,M. Howard & O. Hill,N/A,202-671-4591
Brandywine St,NW,Broad Branch Rd,28th St,1,Pavement Resurface/restoration,2004,100,Completed,0.16,3,COLLECTOR,4/4/2005 12:00:00 AM,7/29/2005 12:00:00 AM,7/29/2005 12:00:00 AM,,395276.891610,142485.176930,38.95025292223690,-77.05448729223720,N/A,Citywide Pavement Restoration,Paul Stephenson,5252,M. Howard & C. Daniel,N/A,202-671-4591
Brandywine St,NW,Linnean Ave,30th St,2,Pavement Resurface/restoration,2004,100,Completed,0.25,3,COLLECTOR,3/31/2004 12:00:00 AM,7/29/2005 12:00:00 AM,7/29/2005 12:00:00 AM,,394848.365110,142421.720550,38.94967888126420,-77.05943043337420,N/A,Citywide Pavement Restoration,Paul Stephenson,3523,M. Howard,N/A,202-671-4591
4th St,NW,Aspen St,Blair Rd,2,Pavement Resurface/restoration,2004,100,Completed,0.15,4,COLLECTOR,3/31/2004 12:00:00 AM,7/29/2005 12:00:00 AM,7/29/2005 12:00:00 AM,2 Year SP 2000 - 2002,398437.435710,145055.232420,38.97341594059220,-77.01803210091510,N/A,FedAid_6YR_CIP,Paul Stephenson,2769,O. Hill,N/A,202-671-4591
Suitland Ter,SE,Southern Ave (E),Southern Ave (W),1,Pavement Resurface/restoration,2004,100,Completed,0.19,7,LOCAL,3/31/2004 12:00:00 AM,,7/29/2005 12:00:00 AM,,404401.894210,132787.351930,38.86289323208620,-76.94928049520920,,,,4179,,,
Atlantic St,SE,1st St,Livingston Rd,1,Bridge Construction,2002,100,Completed,0.13,8,COLLECTOR,7/22/2002 12:00:00 AM,9/30/2003 12:00:00 AM,7/30/2005 12:00:00 AM,Construction Project Completed.,399590.811610,129254.679570,38.83108028571880,-77.00471264958630,,Atlantic Street Bridge Over Oxon Run ,Ron Rohadfor,4986,,,202-671-4463
14th St,NW,Fort Stevens Dr,Somerset Pl,3,Pavement Resurface/restoration,2004,100,Completed,0.20,4,MINOR ARTERIAL,4/4/2005 12:00:00 AM,7/30/2005 12:00:00 AM,7/30/2005 12:00:00 AM,,397103.798360,144169.389350,38.965432668553,-77.03341862562110,WASA FY-06 LSR,Citywide Pavement Reatoration,Paul Stephenson,5280,M. Howard,N/A,202-671-4591
4th St,SE,Wayne Pl,Valley Ave,1,Bridge Construction,2002,100,Completed,0.16,8,COLLECTOR,7/22/2002 12:00:00 AM,5/30/2004 12:00:00 AM,7/30/2005 12:00:00 AM,Construction Project On Schedule-Working to complete railing installation and punch list.,399950.448640,129595.981750,38.83415498682950,-77.00057071084520,,4th Street Bridge Over Oxon Run ,Rod Rohadfor ,4985,,,
Fessenden St,NW,Linnean Ave,Linnean Ave,0,Pavement Resurface/restoration,2005,100,Completed,0,,,7/18/2005 12:00:00 AM,,7/30/2005 12:00:00 AM,,394497.139990,142931.350020,38.95426763048770,-77.063486333759,N/A,Citywide Pavement Restoration,Paul Stephenson,8933,Rodney Olive,N/A,202-671-4591
H St,NE,17th St,24th St,5,Street Light Projects,2005,100,Completed,0.36,5,LOCAL,,,6/30/2005 12:00:00 AM,Fixture Upgrade,402105.474240,136927.239450,38.90019543780560,-76.97572762016080,,,,9114,,,
Bennett Pl,NE,19th St,21st St,1,Street Light Projects,2005,100,Completed,0.11,5,LOCAL,,,6/30/2005 12:00:00 AM,Fixture Upgrade,402151.720190,136849.1910,38.89949223741190,-76.97519473097660,,,,9115,,,
G St,NE,21st St,24th St,1,Street Light Projects,2005,100,Completed,0.10,5,LOCAL,,,6/30/2005 12:00:00 AM,Fixture Upgrade,402318.401120,136785.900570,38.89892167067260,-76.97327342844370,,,,9116,,,
Holbrook Ter,NE,West Virginia Ave,Montello Ave,2,Street Light Projects,2005,100,Completed,0.09,5,LOCAL,,,6/30/2005 12:00:00 AM,Fixture Upgrade,401081.304290,137786.7256,38.90793984786110,-76.98753312797340,,,,9117,,,
26th St,NE,Benning Rd,I St,1,Street Light Projects,2005,100,Completed,0.39,5,LOCAL,,,6/30/2005 12:00:00 AM,Fixture Upgrade,402582.322020,136977.1976,38.90064420718840,-76.97023022441270,,,,9096,,,
Queen St,NE,West Virginia Ave,Montello Ave,1,Street Light Projects,2005,100,Completed,0.10,5,LOCAL,,,6/30/2005 12:00:00 AM,Fixture Upgrade,401040.658940,137728.572290,38.90741603179170,-76.98800183568310,,,,9118,,,
Penn St,NE,West Virginia Ave,Montello Ave,1,Street Light Projects,2005,100,Completed,0.11,5,LOCAL,,,6/30/2005 12:00:00 AM,Fixture Upgrade,401000.199610,137671.161760,38.90689890480080,-76.98846839074530,,,,9119,,,
Owen Pl,NE,West Virginia Ave,Montello Ave,1,Street Light Projects,2005,100,Completed,0.12,5,LOCAL,,,6/30/2005 12:00:00 AM,,400962.301150,137617.190880,38.90641275866270,-76.98890540937850,,,,9120,,,
Oates St,NE,West Virginia Ave,Montello Ave,1,Street Light Projects,2005,100,Completed,0.13,5,LOCAL,,,6/30/2005 12:00:00 AM,Fixture Upgrade,400924.557730,137563.0239,38.90592484414690,-76.98934063483910,,,,9121,,,
Neal St,NE,West Virginia Ave,Montello Ave,1,Street Light Projects,2005,100,Completed,0.15,5,LOCAL,,,6/30/2005 12:00:00 AM,Fixture Upgrade,400857.222050,137467.922780,38.90506820826890,-76.990117076718,,,,9122,,,
Morse St,NE,West Virginia Ave,Montello Ave,1,Street Light Projects,2005,100,Completed,0.16,5,LOCAL,,,6/30/2005 12:00:00 AM,Fixture Upgrade,400789.991580,137372.0807,38.90420489217570,-76.99089228784710,,,,9123,,,
31st St,NW,Military Rd,Nebraska Ave,2,Regular Cover,2004,100,Completed,0.22,4,LOCAL,3/31/2004 12:00:00 AM,,6/30/2005 12:00:00 AM,2 Year CIP 2001 - 2003,394569.757690,143845.465670,38.96250267153790,-77.06265578408190,,,,2477,,,
Elvans Rd,SE,Stanton Rd,Cul De Sac,2,Upgrading,2001,100,Completed,0.28,8,LOCAL,8/2/2004 12:00:00 AM,7/15/2005 12:00:00 AM,6/30/2005 12:00:00 AM,Construction completed July 15  2005.,400997.534810,131819.773780,38.85418732902890,-76.98850760695460,Close out in progress,UPGRADING OF ELVANS ROAD  SE,Samuel Olatunji,2655,Shakeri Ali  PE,ali.shakeri@dc.gov,202-671-4637
31st St,NW,Woodland Dr,Cleveland Ave (E),1,Upgrading,2004,100,Completed,0.09,3,LOCAL,3/31/2004 12:00:00 AM,,6/30/2005 12:00:00 AM,2 Year CIP 2001 - 2003,394689.066580,139699.553630,38.92515585246760,-77.06124706776830,N/A,Citywide Pavement Restoration,Paul Stephenson ,2592,,N/A,202-671-4591
Worthington St,NW,31st St,32nd St (S),3,Pavement Resurface/restoration,2005,100,Completed,0.14,4,LOCAL,6/14/2005 12:00:00 AM,6/30/2005 12:00:00 AM,6/30/2005 12:00:00 AM,,395011.018330,145350.526340,38.97606323405480,-77.05757533886330,N/A,Citywide Pavement Restoration,Paul Stephenson,8519,Deguzman and Rodney,N/A,202-671-4591
New Jersey Ave,NW,Louisiana Ave,E St,2,Pavement Resurface/restoration,2004,100,Completed,0.17,6,COLLECTOR,4/4/2005 12:00:00 AM,7/5/2005 12:00:00 AM,7/4/2005 12:00:00 AM,,399042.534270,136354.481180,38.89503782391070,-77.01103708183730,,Fedral Aid Citywide Pavement Restoration,Mohamed Abdullahi,4369,Said Cherifi,said.cherifi@dc.gov,202-671-4611
30th St,NW,Ordway St,Porter St,1,Pavement Resurface/restoration,2004,100,Completed,0.10,3,LOCAL,3/31/2004 12:00:00 AM,6/29/2005 12:00:00 AM,6/29/2005 12:00:00 AM,,394704.727030,140957.551580,38.93648837670370,-77.06107617365140,WASA FY-06 LSR,Citywide Pavement Restoraction,Paul Stephenson,3940,M. Howard,N/A,202-671-4591
Gallaudet St,NE,Corcoran St,Kendall St,1,Pavement Resurface/restoration,2004,100,Completed,0.02,5,LOCAL,,,6/29/2005 12:00:00 AM,PROJECT IS ON HOLD DUE TO CONCRETE ISSUES,401114.064610,138343.5192,38.91295559376660,-76.98715451533710,,,,5558,,,
Newark St,NW,Macarthur Blvd,Potomac Ave,2,Regular Cover,2003,100,Completed,0.13,3,LOCAL,4/10/2005 12:00:00 AM,,6/30/2005 12:00:00 AM,Sherier Pl to Potomac St was orginally proposed for FY-04 SP,390311.168690,140696.039810,38.93409513690830,-77.11174815496940,,,,5097,,,
48th Pl,NE,Eads St,Foote St,2,Pavement Resurface/restoration,2004,100,Completed,0.18,7,LOCAL,4/4/2005 12:00:00 AM,,6/30/2005 12:00:00 AM,,405719.671810,136489.517210,38.89623619205080,-76.93406599352810,,CIP_2004-2009,,4849,,,
1st St,NW,I St,M St,3,Pavement Resurface/restoration,2004,100,Completed,0.30,6,COLLECTOR,7/1/2005 12:00:00 AM,,6/30/2005 12:00:00 AM,,398944.866780,137291.902620,38.90348234151040,-77.01216437309360,,CIP_2004-2009,Mohamed Abdullahi,4853,Said Cherifi,said.cherifi@dc.gov,202-671-4611
10th St,NE,Franklin St,Michigan Ave (S),11,Street Light Projects,2005,100,Completed,0.67,5,LOCAL,,,6/30/2005 12:00:00 AM,,400653.680320,140284.140130,38.93043779642890,-76.99246103039470,,,,9086,,,
Woodland Dr,NW,30th St,31st St,1,Pavement Resurface/restoration,2005,100,Completed,0.11,3,LOCAL,4/4/2005 12:00:00 AM,6/30/2005 12:00:00 AM,6/30/2005 12:00:00 AM,,394722.879420,139619.888960,38.92443841168610,-77.06085651695390,Per Team 2,Citywide Pavement Restoration,Paul Stephenson,7524,,N/A,
17th St,NE,Benning Rd,M St,8,Street Light Projects,2005,100,Completed,0.43,5,MINOR ARTERIAL,,,6/30/2005 12:00:00 AM,Fixture Upgrade,401822.190020,137185.214210,38.90251999916680,-76.97899269976390,,,,9104,,,
Lyman Pl,NE,Bladensburg Rd,19th St,2,Street Light Projects,2005,100,Completed,0.22,5,LOCAL,,,6/30/2005 12:00:00 AM,Fixture Upgrade,401890.158530,137457.425150,38.90497202764490,-76.97820836888730,,,,9106,,,
Lang Pl,NE,Bladensburg Rd,19th St  Summit St,2,Street Light Projects,2005,100,Completed,0.24,5,LOCAL,,,6/30/2005 12:00:00 AM,Fixture Upgrade,401873.369250,137390.539810,38.90436953699240,-76.97840211486960,,,,9108,,,
L St,NE,Bladensburg Rd,19th St,4,Street Light Projects,2005,100,Completed,0.26,5,LOCAL,,,6/30/2005 12:00:00 AM,Fixture Upgrade,401854.017180,137317.869530,38.90371493858570,-76.97862541909170,,,,9109,,,
K St,NE,17th Pl,Maryland Ave,3,Street Light Projects,2005,100,Completed,0.14,5,LOCAL,,,6/30/2005 12:00:00 AM,Fixture Upgrade,401838.860480,137183.851840,38.90250769173940,-76.97880051634960,,,,9110,,,
Maryland Ave,NE,17th St,M St,7,Street Light Projects,2005,100,Completed,0.54,5,COLLECTOR,,,6/30/2005 12:00:00 AM,Fixture Upgrade,402205.850050,137319.3983,38.90372789776920,-76.97456920592810,,,,9111,,,
I St,NE,17th St,26th St,6,Street Light Projects,2005,100,Completed,0.53,5,LOCAL,,,6/30/2005 12:00:00 AM,Fixture Upgrade,402186.611420,137187.471130,38.90253949931390,-76.97479142414830,,,,9112,,,
H Pl,NE,18th St,19th St,1,Street Light Projects,2005,100,Completed,0.07,5,LOCAL,,,6/30/2005 12:00:00 AM,Fixture Upgrade,402007.395330,137002.102430,38.90087005972610,-76.97685807702740,,,,9113,,,
Adams St,NE,Cul De Sac,30th Pl,1,Pavement Resurface/restoration,2004,100,Completed,0.03,5,LOCAL,6/6/2005 12:00:00 AM,,5/19/2005 12:00:00 AM,,402889.199330,139235.448160,38.920986341431,-76.96668295048870,,,,5520,,,
Adams St,NE,30th St,31st St,1,Pavement Resurface/restoration,2004,100,Completed,0.13,5,LOCAL,,,5/19/2005 12:00:00 AM,,403041.2385,139269.589180,38.92129338175540,-76.96492954669870,,,,5521,,,
Woodley Rd,NW,Cathedral Ave (E),29th St,5,Reconstruction,1999,100,Completed,0.42,1,LOCAL,3/31/2004 12:00:00 AM,,5/19/2005 12:00:00 AM,2 Year CIP 2001 - 2003,395326.762650,139758.427970,38.92568983381180,-77.05389339321580,,,,2488,,,
35th St,SE,East Capitol St,A St,1,Bridge Construction,2002,100,Completed,0.07,7,LOCAL,,7/27/2004 12:00:00 AM,1/1/2005 12:00:00 AM,,403811.173830,135716.458360,38.88928253839380,-76.95607065148230,Bridge over East Capitol St,,,5094,,,
A St,SE,49th St,53rd St,3,Upgrading,1999,100,Completed,0.39,7,LOCAL,3/31/2004 12:00:00 AM,10/7/2004 12:00:00 AM,1/10/2005 12:00:00 AM,2 Year CIP 2001 - 2003 Ongoing Activities: PCC Coping Wall PreparationOngoing activities:  Pipe work and manhole installation complete. Ongoing asphalt surface work.  Estimate percent complete:  90%,406163.117160,135561.393180,38.88787231174050,-76.92896246689080,,Local Street Upgr-W7,Sylvester Okpala,2565,,,
F St,SE,33rd St,Minnesota Ave,1,Upgrading,1999,100,Completed,0.07,7,LOCAL,3/31/2004 12:00:00 AM,8/1/2004 12:00:00 AM,1/14/2005 12:00:00 AM,released sept. 18  2003. drainage design under review due to possible utility conflicts. preparing sand filter option for drainage. will meet with nps and dcra to discuss plans.,403537.567680,134907.3303,38.88199474849760,-76.95922852717750,FY-04 per Sylvester,Local Street Upgr-W7,Sylvester Okpala,2660,,,
10th St,NW,Massachusetts Ave,M St,2,Federal Aid Resurfacing,2000,100,Completed,0.15,2,COLLECTOR,,5/6/2003 12:00:00 AM,1/17/2005 12:00:00 AM,2 Year CIP 2000 - 2002,397746.077340,137417.482370,38.904611351580,-77.02598533521130,,FY 2000 3rd F.A. Resurfacing,,2696,,,
O St,NW,Service Road,1st St,1,Street Light Projects,2004,100,Completed,0.16,5,LOCAL,,,1/31/2005 12:00:00 AM,Fixture Upgrade,399074.103290,137856.304320,38.90856681442320,-77.01067519786590,,,,9124,,,
P St,NW,North Capitol St,3rd St,2,Street Light Projects,2004,100,Completed,0.33,5,LOCAL,,,1/31/2005 12:00:00 AM,Fixture Upgrade,398948.995040,137975.449180,38.90963997156170,-77.01211782545940,,,,9125,,,
Q St,NW,Florida Ave (E),3rd St,2,Street Light Projects,2004,100,Completed,0.29,5,MINOR ARTERIAL,,,1/31/2005 12:00:00 AM,Fixture Upgrade,398915.860280,138139.811740,38.91112056538260,-77.01250012047620,,,,9126,,,
36th St,NW,Macomb St,Porter St,4,Reconstruction,2004,100,Completed,0.26,3,LOCAL,,,2/8/2005 12:00:00 AM,2 Year CIP 2001 - 2003,393854.1333,140838.3441,38.935408982204,-77.07088592995540,,,,2489,,,
Meigs Pl,NE,Trinidad Ave,Cul De Sac,1,Pavement Resurface/restoration,2004,100,Completed,0.03,5,LOCAL,8/4/2005 12:00:00 AM,,5/17/2005 12:00:00 AM,,401451.770180,137687.005850,38.90704100400290,-76.98326206121520,,,,5595,,,
Chillum Pl,NE,11th St,Jefferson St (W),1,Pavement Resurface/restoration,2005,100,Completed,0.36,5,LOCAL,7/1/2007 12:00:00 AM,,5/17/2005 12:00:00 AM,,400450.739070,143061.916450,38.95546092903160,-76.99479974999180,,,,4560,,,
Galloway St,NE,Sargent Rd,Eastern Ave,1,Pavement Resurface/restoration,2004,100,Completed,0.15,5,LOCAL,,,5/17/2005 12:00:00 AM,,401118.915490,142775.809120,38.952883000808,-76.98709135671970,,,,5559,,,
Chillum Pl,NE,Jefferson St (W),Kennedy St,1,Pavement Resurface/restoration,2004,100,Completed,0.05,5,LOCAL,,,5/18/2005 12:00:00 AM,,400152.539420,143182.849540,38.95655042861240,-76.99824010098630,,,,5528,,,
Upshur St,NE,19th St,19th Pl,1,Pavement Resurface/restoration,2004,100,Completed,0.06,5,LOCAL,,,5/18/2005 12:00:00 AM,,401924.955140,141544.502240,38.94178964865940,-76.97779573785240,,,,5610,,,
Holbrook St,NE,Meigs Pl,Raum St,1,Pavement Resurface/restoration,2004,100,Completed,0.07,5,LOCAL,,,5/18/2005 12:00:00 AM,,401618.231580,137619.431070,38.90643197620610,-76.98134303193040,,,,5569,,,
Logan Cir,NW,Vermont Ave (S),13th St (S),1,Pavement Resurface/restoration,2004,100,Completed,0.02,2,MINOR ARTERIAL,4/4/2005 12:00:00 AM,,5/19/2005 12:00:00 AM,,397413.857980,137917.1671,38.90911177027130,-77.02981735309780,POKA-2004-B-0016-JJ,Fedeeral Aid City Wide Pavement Restoration Contract,Maduabuchi Udeh,5228,Michael Jelen,Michael.Jelen@dc.gov,202-671-4542
19th St,NW,H St (N),L St,3,Federal Aid Resurfacing,2004,100,Completed,0.17,2,MINOR ARTERIAL,3/31/2004 12:00:00 AM,,5/13/2005 12:00:00 AM,2 Year CIP 2000 - 2002,396230.331960,137125.234530,38.90197348651050,-77.04345866403290,99-0225-AA-2-0-KA,FY-99 1st Federal Aid Resurfacing Contract,Maduabuchi Udeh,2321,Michael Jelen,Michael.Jelen@dc.gov,202-671-4542
Lyman Pl,NE,Bladensburg Rd,17th St,1,Pavement Resurface/restoration,2004,100,Completed,0.07,5,LOCAL,5/9/2005 12:00:00 AM,,5/13/2005 12:00:00 AM,,401769.832540,137457.237020,38.90497058341690,-76.97959560724410,,,,5593,,,
Lyman Pl,NE,17th St,19th St,1,Pavement Resurface/restoration,2004,100,Completed,0.15,5,LOCAL,5/9/2005 12:00:00 AM,,5/13/2005 12:00:00 AM,,401942.765250,137457.330780,38.90497106282730,-76.97760186648650,,,,5594,,,
K St,NE,17th Pl,18th St,2,Pavement Resurface/restoration,2004,100,Completed,0.11,5,LOCAL,5/9/2005 12:00:00 AM,,5/16/2005 12:00:00 AM,,401815.852670,137183.571230,38.90250521173550,-76.97906576487940,,CIP_2004-2009,,4425,,,
Holbrook St,NE,Childress St,Meigs Pl,1,Pavement Resurface/restoration,2004,100,Completed,0.03,5,LOCAL,5/10/2005 12:00:00 AM,,5/16/2005 12:00:00 AM,,401583.249410,137549.430110,38.90580144688110,-76.98174651086390,,,,5568,,,
Fairview Ave,NE,Okie St,New York Ave,1,Pavement Resurface/restoration,2004,100,Completed,0.05,5,LOCAL,,,5/19/2005 12:00:00 AM,,400962.949370,138448.4687,38.91390119273730,-76.98889677022050,,,,5549,,,
Pennsylvania Ave,NW,15th St (N),17th St,3,Reconstruction,2003,100,Completed,0.31,2,LOCAL,3/31/2004 12:00:00 AM,,5/20/2005 12:00:00 AM,,396829.400280,136766.999320,38.89874874076110,-77.03655064483610,,,,5102,,,
L St,NW,4th St,5th St (S),1,Pavement Resurface/restoration,2004,100,Completed,0.16,6,LOCAL,,,5/20/2005 12:00:00 AM,,398477.746650,137319.932960,38.90373416385140,-77.01754974895390,1st Aid to State ,,,3512,,,
Randolph St,NE,17th St,17th Pl,1,Pavement Resurface/restoration,2004,100,Completed,0.04,5,LOCAL,,,5/20/2005 12:00:00 AM,,401629.171970,141157.623650,38.93830513186150,-76.98120850057520,,,,5606,,,
Upshur St,NE,19th Pl,20th St,1,Pavement Resurface/restoration,2004,100,Completed,0.06,5,LOCAL,,,5/20/2005 12:00:00 AM,,402015.514620,141544.798950,38.94179211841610,-76.97675113791080,,,,5611,,,
Barker Ln,SE,Alabama Ave,Cul De Sac,1,Pavement Resurface/restoration,2004,100,Completed,0.04,7,LOCAL,4/4/2005 12:00:00 AM,5/18/2005 12:00:00 AM,5/20/2005 12:00:00 AM,,405084.421670,133676.700990,38.87090117081260,-76.94140970258970,,,,5631,,,
22nd St,NE,Rand Pl,S St,1,Pavement Resurface/restoration,2004,100,Completed,0.05,5,LOCAL,,,5/20/2005 12:00:00 AM,,402239.859680,138427.995290,38.91371443471450,-76.97417350005810,,,,5873,,,
Water St,SW,T St,Half St,1,Pavement Resurface/restoration,2004,100,Completed,0.09,6,LOCAL,,,5/23/2005 12:00:00 AM,,399097.512380,133209.404670,38.86670581046380,-77.01039919771120,,,,4952,,,
1st St,SW,R St,V St,3,Pavement Resurface/restoration,2004,100,Completed,0.34,6,LOCAL,6/23/2005 12:00:00 AM,,5/23/2005 12:00:00 AM,,398943.247680,133248.569660,38.86705845292720,-77.012176821458,,,,5678,,,
South Capitol St,SW,R St,S St,1,Pavement Resurface/restoration,2004,100,Completed,0.08,6,LOCAL,,,5/25/2005 12:00:00 AM,,399213.689730,133449.405850,38.86886795079330,-77.00906078211870,,,,4954,,,
Lawrence St,NE,7th St,8th St,1,Pavement Resurface/restoration,2004,100,Completed,0.06,5,LOCAL,,,5/27/2005 12:00:00 AM,,400384.080030,140388.963940,38.93138224072530,-76.99557030258560,,,,5584,,,
Legation St,NW,Mckinley St,31st St,3,Pavement Resurface/restoration,2004,100,Completed,0.26,4,LOCAL,3/31/2004 12:00:00 AM,,5/27/2005 12:00:00 AM,,394730.368570,143954.582310,38.963486599783,-77.06080344613360,,Citywide Pavement Restoration,Paul Stephenson,3977,Midibo Hylton,N/A,(202)6714591
8th St,SE,Xenia St,Atlantic St,2,Pavement Resurface/restoration,2005,100,Completed,0.14,8,LOCAL,,,5/27/2005 12:00:00 AM,INFORMATION PROVIDED BY SYLVESTER (TEAM 4),400465.670910,129355.385010,38.83198745881640,-76.99463676937880,,CITY WIDE PAVEMENT RESTORATION CONTRACT (LOCAL STREETS),,8736,,,
Halley Pl,SE,Martin Luther King Jr Ave ,1st St,2,Pavement Resurface/restoration,2005,100,Completed,0.13,8,COLLECTOR,,,5/27/2005 12:00:00 AM,INFORMATION PROVIDED BY SYLVESTER (TEAM 4),399406.752290,129695.692920,38.83505303211660,-77.006832853039,,CITYWIDE PAVEMENT RESTORATION CONTRACT (LOCAL STREETS),,8737,,,
Adams St,NW,1st St,2nd St,2,Pavement Resurface/restoration,2004,100,Completed,0.15,5,LOCAL,7/28/2005 12:00:00 AM,,5/27/2005 12:00:00 AM,,398828.325020,139151.410010,38.920233266848,-77.01351112744760,,CIP_2004-2009,,4559,,,
Webster St,NE,14th St  South Dakota Ave,Michigan Ave,3,Traffic Calming,2005,100,Completed,0.32,5,LOCAL,,,5/30/2005 12:00:00 AM,,401508.383390,141815.620320,38.94423277195120,-76.98260027613830,,,,9099,,,
10th St,NE,Evarts St (S),Franklin St,2,School Signage,2005,100,Completed,0.09,5,LOCAL,,,5/31/2005 12:00:00 AM,,400656.804320,139673.689920,38.92493866771710,-76.99242558510430,,,,9085,,,
South Dakota Ave,NE,Galloway St,Hamilton St,1,School Signage,2005,100,Completed,0.10,5,PRINCIPAL ARTERIAL,,,5/31/2005 12:00:00 AM,,400218.004670,142805.204610,38.95314848888350,-76.997484926238,,,,9088,,,
Hamlin Pl,NE,Mills Ave,Hamlin St,3,Pavement Resurface/restoration,2004,100,Completed,0.08,5,LOCAL,,,6/1/2005 12:00:00 AM,,402389.802910,139954.008510,38.92746086165590,-76.97243928103780,,,,5089,,,
Central Ave,NE,Vista St,Carlton Ave,2,Pavement Resurface/restoration,2004,100,Completed,0.11,5,LOCAL,,,6/1/2005 12:00:00 AM,,402983.594340,140175.937340,38.92945824997910,-76.96559033848350,,,,5128,,,
29th St,NW,Kanawha St,Utah Ave,2,Pavement Resurface/restoration,1993,100,Completed,0.09,4,LOCAL,10/12/1993 12:00:00 AM,11/11/1993 12:00:00 AM,6/3/2005 12:00:00 AM,,394909.087640,144150.053480,38.96524850650880,-77.058742754714,N/A,Citywide Pavement Restoration,Paul Stephenson,880,Midbo Hylton ,N/A,(202)6714591
Hamlin St,NE,Hamlin Pl,25th St,1,Pavement Resurface/restoration,2004,100,Completed,0.03,5,LOCAL,,,6/3/2005 12:00:00 AM,,402473.849440,139982.347620,38.92771591661470,-76.97146990120620,,,,5566,,,
23rd St,NW,Tracy Pl,Kalorama Rd,3,Pavement Resurface/restoration,2004,100,Completed,0.10,2,LOCAL,4/4/2005 12:00:00 AM,,6/8/2005 12:00:00 AM,,395609.876830,138797.216160,38.91703238838270,-77.05062227604680,POKA-2003-B-0048-JJ,Citywide Pavement Restoration Contract(Local Streets),Maduabuchi Udeh,4979,Michael Jelen,Michael.Jelen@dc.gov,202-671-4542
Hawthorne St,NW,Cul De Sac (W),32nd St,1,Regular Cover,2003,100,Completed,0.09,3,LOCAL,4/9/2003 12:00:00 AM,,6/9/2005 12:00:00 AM,,394587.179420,140045.433980,38.92827102897480,-77.06242478428110,,,,6890,,,
3rd St,NW,Florida Ave (W),Rhode Island Ave,2,Reconstruction,1999,100,Completed,0.05,5,LOCAL,,,2/15/2005 12:00:00 AM,2 Year CIP 2001 - 2003  Extended the limit of the original project  due to an extra $5 000 000.00 for local streets  per Khalid,398632.528640,138468.879970,38.91408452798910,-77.01576758682040,Suspended the construction due to Pepco work,,,4791,,,
10th St,NE,Buchanan St,Decatur St,2,Pavement Resurface/restoration,2004,100,Completed,0.14,5,LOCAL,3/31/2004 12:00:00 AM,,2/17/2005 12:00:00 AM,Added per A. Mohamed,400637.914210,142152.594790,38.947269396252,-76.99264112563820,,,,5895,,,
63rd St,NE,Southern Ave,Banks Pl,1,Pavement Resurface/restoration,2004,100,Completed,0.03,7,MINOR ARTERIAL,4/4/2005 12:00:00 AM,,10/27/2005 12:00:00 AM,,407720.300070,135990.867290,38.89172887877690,-76.91100919624520,,,,5693,,,
40th Pl,SE,D St,E St,2,Pavement Resurface/restoration,2005,100,Completed,0.14,7,LOCAL,7/1/2008 12:00:00 AM,10/28/2005 12:00:00 AM,10/27/2005 12:00:00 AM,,404754.711010,135117.986520,38.88388668119040,-76.94519914988710,,Citywide Pavement Restoration Local Streets ward7 8,Sylvester Okapala,7343,Sylvester Okapala,,202-671-4613
Hawaii Ave,NE,Varnum St,Taylor St,1,Pavement Resurface/restoration,2004,100,Completed,0.18,5,COLLECTOR,4/4/2005 12:00:00 AM,7/25/2005 12:00:00 AM,10/28/2005 12:00:00 AM,,399953.069090,141548.440160,38.94182723021210,-77.00054134600120,,FedAid_6YR_CIP,Mohamed Abdullahi,4821,Said Cherifi,said.cherifi@dc.gov,202-671-4611
12th St,SW,C St,D St,1,Pavement Resurface/restoration,2004,100,Completed,0.07,2,LOCAL,4/4/2005 12:00:00 AM,,10/28/2005 12:00:00 AM,,397559.6351,135293.011610,38.88547284364860,-77.02812726955230,POKA-2003-B-0048-JJ,Citywide Pavement Restoration Contract (Local Streets),Maduabuchi Udeh,5679,Michael Jelen,Michael.Jelen@dc.gov,202-671-4542
44th St,NE,Grant St,Gault Pl,1,Pavement Resurface/restoration,2004,100,Completed,0.05,7,COLLECTOR,4/4/2005 12:00:00 AM,,8/23/2005 12:00:00 AM,,405274.973950,136764.280060,38.89871413575730,-76.93919017473950,,,,5687,,,
52nd St,SE,East Capitol St,Central Ave,1,Pavement Resurface/restoration,2004,100,Completed,0.08,7,LOCAL,3/31/2004 12:00:00 AM,11/7/2005 12:00:00 AM,10/31/2005 12:00:00 AM,,406334.381570,135692.480890,38.88905198161560,-76.92698722552530,,Citywide Pavement Restoration Local Streets ward7 8,Sylvester Okapala,4689,Sylvester Okapala,,202-671-4613
Michigan Ave,NE,12th St,14th St,7,Federal Aid Resurfacing,2004,100,Completed,0.36,5,MINOR ARTERIAL,7/21/2005 12:00:00 AM,,10/31/2005 12:00:00 AM,,401039.372130,141424.646340,38.94071144607230,-76.98801107538760,,Street Resurfacing,Abdullahi Mohamed,6219,Morgan Prince,morgan.prince@dc.gov,202-671-4627
56th St,SE,Ayers Pl,Central Ave,1,Pavement Resurface/restoration,2004,100,Completed,0.09,7,LOCAL,3/31/2004 12:00:00 AM,11/7/2005 12:00:00 AM,10/31/2005 12:00:00 AM,,406848.014630,135451.860440,38.88688053181070,-76.921069273434,,Citywide Pavement Restoration Local Streets ward7 8,Sylvester Okapala,4080,Sylvester Okapala,,202-671-4613
C St,SE,Texas Ave,Benning Rd (N),1,Pavement Resurface/restoration,2005,100,Completed,0.24,7,LOCAL,7/1/2006 12:00:00 AM,11/14/2005 12:00:00 AM,11/4/2005 12:00:00 AM,,405348.1409,135414.003420,38.886549904505,-76.93835721838430,,Citywide Pavement Restoration Local Streets ward7 8,Sylvester Okapala,4084,Sylvester Okapala,,202-671-4613
Plymouth Cir,NW,Plymouth St,Parkside Ln (C),2,Pavement Resurface/restoration,2004,100,Completed,0.05,4,LOCAL,4/4/2005 12:00:00 AM,,11/5/2005 12:00:00 AM,,395940.108440,146682.587430,38.98806751462510,-77.04686106854290,N/A,Citywidy Pavement Restoration,Paul Stephenson,5813,Madibo,N/A,202-6714591 
Good Hope Rd,SE,Martin Luther King Jr Ave,Naylor Rd (E),16,Pavement Resurface/restoration,2005,100,Completed,1.24,7/8,MINOR ARTERIAL,11/3/2005 12:00:00 AM,12/3/2005 12:00:00 AM,11/5/2005 12:00:00 AM,,401964.526750,133032.7966,38.86511312114290,-76.97736362705630,,,,8663,,,
Plymouth St,NW,Sudbury Ln (W),Plymouth St (N),1,Pavement Resurface/restoration,2005,100,Completed,0.04,4,LOCAL,7/1/2009 12:00:00 AM,,11/5/2005 12:00:00 AM,,396081.808250,146534.737830,38.98673629880320,-77.04522466134960,N/A,Citywide Pavement Restoration,Paul Stephenson,6967,Madibo,N/A,202-671-4591
1st St,NE,Longfellow St,Madison St,1,Pavement Resurface/restoration,2004,100,Completed,0.07,4,LOCAL,4/4/2005 12:00:00 AM,11/7/2005 12:00:00 AM,11/7/2005 12:00:00 AM,,399456.399970,143364.894310,38.95819018051240,-77.00627184216720,n/a,Citywide Pavement Restoration,Paul Stephenson,5855,Deguzman,,202-671-4591
Longfellow St,NE,Blair Rd,1st St,1,Regular Cover,2004,100,Completed,0.10,4,LOCAL,3/31/2004 12:00:00 AM,11/7/2005 12:00:00 AM,11/7/2005 12:00:00 AM,2 Year CIP 2001 - 2003  Team leader will let us know why it was dropped,399374.400030,143305.836320,38.95765811618390,-77.00721787116750,N/A,Citywide Pavement Restoration,Paul Stephenson,2492,Deguzman,N/A,202-671-4591
Yuma St,NW,36th St,Reno Rd,1,Pavement Resurface/restoration,2005,100,Completed,0.10,3,LOCAL,7/1/2008 12:00:00 AM,11/8/2005 12:00:00 AM,11/8/2005 12:00:00 AM,,393863.285210,142044.970790,38.94627868636760,-77.07079116487540,N/A,Citywide Pavement Project,Paul Stephenson,7047,Rodney  Olive,N/A,202-671-4591
Dubois Pl,SE,Burbank St,Texas Ave,2,Pavement Resurface/restoration,2005,100,Completed,0.20,7,LOCAL,10/4/2005 12:00:00 AM,11/14/2005 12:00:00 AM,11/9/2005 12:00:00 AM,,404991.841190,135319.393980,38.88569972198250,-76.94246462229570,,Citywide Pavement Restoration Local Streets ward7 8,Sylvester Okapala,7379,Sylvester Okapala,,202-671-4613
34th St,SE,C St,Dubois Pl,1,Pavement Resurface/restoration,2004,100,Completed,0.05,7,LOCAL,4/4/2005 12:00:00 AM,11/14/2005 12:00:00 AM,11/9/2005 12:00:00 AM,,403685.787490,135308.689630,38.885609738335,-76.95751809934050,,Citywide Pavement Restoration Local Streets ward7 8,Sylvester Okapala,5629,Sylvester Okapala,,202-671-4613
Burbank St,SE,C St,Texas Ave,3,Pavement Resurface/restoration,2005,100,Completed,0.31,7,LOCAL,10/4/2005 12:00:00 AM,11/14/2005 12:00:00 AM,11/9/2005 12:00:00 AM,,404897.773510,135194.897790,38.88457874199040,-76.94354972241390,,Citywide Pavement Restoration Local Streets ward7 8,Sylvester Okapala,8831,Sylvester Okapala,,202-671-4613
Ely Pl,SE,Cul De Sac,32nd St,1,Pavement Resurface/restoration,2005,100,Completed,0.03,7,LOCAL,7/1/2006 12:00:00 AM,11/14/2005 12:00:00 AM,11/10/2005 12:00:00 AM,,403320.342530,135086.982780,38.88361397434390,-76.96173124047280,,Citywide Pavement Restoration Local Streets ward7 8,Sylvester Okapala,7385,Sylvester Okapala,,202-671-4613
W St,SE,30th St (S),31st St,2,Pavement Resurface/restoration,2004,100,Completed,0.09,7,LOCAL,4/4/2005 12:00:00 AM,11/14/2005 12:00:00 AM,11/10/2005 12:00:00 AM,,403127.629540,132786.298810,38.86288919976880,-76.96396283034830,,Citywide Pavement Restoration Local Streets ward7 8,Sylvester Okapala,5907,Sylvester Okapala,,202-671-4613
U St,SE,Branch Ave,36th Pl,2,Pavement Resurface/restoration,2004,100,Completed,0.13,7,LOCAL,3/31/2004 12:00:00 AM,11/14/2005 12:00:00 AM,11/10/2005 12:00:00 AM,,403598.081250,133070.935610,38.86545152694990,-76.95854070339690,,Citywide Pavement Restoration Local Streets ward7 8,Sylvester Okapala,4270,Sylvester Okapala,,202-671-4613
C St,SE,Burbank St,Texas Ave,1,Pavement Resurface/restoration,2005,100,Completed,0.24,7,LOCAL,10/26/2005 12:00:00 AM,11/14/2005 12:00:00 AM,11/14/2005 12:00:00 AM,,404963.1153,135409.134360,38.88650829994880,-76.94279506530120,,Citywide Pavement Restoration Local Streets ward7 8,Sylvester Okapala,8834,Sylvester Okapala,,202-671-4613
30th St,NW,Olive St,N St,1,Pavement Resurface/restoration,2005,100,Completed,0.05,2,COLLECTOR,7/1/2006 12:00:00 AM,,11/16/2005 12:00:00 AM,,394867.023740,137623.077630,38.90645132751690,-77.05917929633210,POKA-2004-B-0016-JJ,Federal Aid City Wide Pavement Restoration Contract,Maduabuchi Udeh,7649,Michael Jelen,Michael.Jelen@dc.gov,202-671-4542
30th St,NW,Dumbarton St,O St,1,Pavement Resurface/restoration,2005,100,Completed,0.06,2,COLLECTOR,7/1/2006 12:00:00 AM,,11/16/2005 12:00:00 AM,,394864.286140,137803.488250,38.90807651259180,-77.05921220790290,POKA-2004-B-0016-JJ,Federal Aid City Wide Pavement Restoration Contract,Maduabuchi Udeh,7650,Michael Jelen,Michael.Jelen@dc.gov,202-671-4542
34th St,NW,Reservoir Rd,Wisconsin Ave,2,Pavement Resurface/restoration,2005,100,Completed,0.21,2,COLLECTOR,7/1/2006 12:00:00 AM,,11/16/2005 12:00:00 AM,,394109.589820,138487.5927,38.91423442282810,-77.06791934364890,POKA-2004-B-0016-JJ,Federal Aid City Wide Pavement Restoration Contract,Maduabuchi Udeh,6503,Michael Jelen,Michael.Jelen@dc.gov,202-671-4542
17th St,NE,Webster St,Allison St,1,Pavement Resurface/restoration,2005,100,Completed,0.07,5,LOCAL,7/1/2007 12:00:00 AM,,11/21/2005 12:00:00 AM,,401588.557150,141872.295040,38.94474317259650,-76.98167531289210,,,,7073,,,
Fort Totten Dr,NE,2nd St  Hawaii Ave,Crittenden St,4,Pavement Resurface/restoration,2005,100,Completed,0.31,5,COLLECTOR,,,11/22/2005 12:00:00 AM,,399536.751970,142018.321060,38.94605993034530,-77.00534386310790,,,,8916,,,
Pierce Mill Rd,NW,Park Rd,Cul De Sac,1,Pavement Resurface/restoration,2004,100,Completed,0.09,1,LOCAL,3/31/2004 12:00:00 AM,,11/23/2005 12:00:00 AM,,396010.605910,140681.760580,38.93401086899140,-77.04601244416260,POKA-2003-B-0048,Citywide Pavement Restoration (Local Streets),Maduabuchi Udeh,3410,Michael Jelen,Michael.Jelen@dc.gov,202-671-4542
Mount Pleasant St,NW,Park Rd (W),Newton St,1,Pavement Resurface/restoration,2004,100,Completed,0.12,1,LOCAL,3/31/2004 12:00:00 AM,,11/23/2005 12:00:00 AM,Added to IDIQ04 per Team 1,396538.123670,140605.121180,38.93332271498030,-77.03992783081980,POKA-2003-B-0048-JJ,Citywide Pavement Restoration Contract (Local Streets),Maduabuchi Udeh,2128,Michael Jelen,Michael.Jelen@dc.gov,202-671-4542
17th St,NW,Newton St,Piney Branch Pky,2,Pavement Resurface/restoration,2004,100,Completed,0.22,1/4,LOCAL,7/1/2005 12:00:00 AM,,11/23/2005 12:00:00 AM,,396614.515230,140854.430270,38.93556886383050,-77.03904799263160,POKA-2003-B-0048-JJ,Citywide Pavement Restoration Contract (Local Streets),Maduabuchi Udeh,8722,Michael Jelen,Michael.Jelen@dc.gov,202-671-4542
5th St,NW,Florida Ave (W),U St,3,Pavement Resurface/restoration,2004,100,Completed,0.13,1/2,LOCAL,,,8/23/2005 12:00:00 AM,,398392.116380,138649.423420,38.91571051672710,-77.01854007577270,POKA-2004-B-0010-JJ,Rehabilitation of Special Streets in LeDroit Park ,Maduabuchi Udeh,8555,Michael Jelen,Michael.Jelen@dc.gov,202-671-4542
Farragut St,NW,Georgia Ave,13th St,2,Pavement Resurface/restoration,2004,100,Completed,0.13,4,LOCAL,,,8/23/2005 12:00:00 AM,,397530.290040,142545.152390,38.95080242326550,-77.02849158409210,,,,9900,,,
Vista St,NE,Franklin St,27th St,1,Pavement Resurface/restoration,2004,100,Completed,0.03,5,COLLECTOR,7/1/2005 12:00:00 AM,,8/24/2005 12:00:00 AM,,402677.856290,139763.1975,38.92574114552460,-76.96911801190030,,Fedral Aid Citywide Pavement Restoration,Mohamed Abdullahi,5497,Said Cherifi,said.cherifi@dc.gov,202-671-4611
50th St,NE,East Capitol St (E),Brooks St,3,Federal Aid Resurfacing,2004,100,Completed,0.17,7,COLLECTOR,12/31/2004 12:00:00 AM,,8/24/2005 12:00:00 AM,,406067.991720,135908.121020,38.89099642703630,-76.93005584253450,,Federal Aid City Wide Pavement Restoration Contract,Samuel Olatunji,6176,,,
14th St,SE,E St,G St,1,Pavement Resurface/restoration,2004,100,Completed,0.11,6,LOCAL,4/4/2005 12:00:00 AM,,8/24/2005 12:00:00 AM,ON Hold for WASA,401257.314140,134913.040090,38.88205240196450,-76.98550908594350,,,,5622,,,
3rd St,SE,D St (S),South Carolina Ave,2,Pavement Resurface/restoration,2004,100,Completed,0.14,6,LOCAL,4/4/2005 12:00:00 AM,,8/24/2005 12:00:00 AM,WASA Lead Location FY-05,399823.018430,135050.130520,38.88328824662440,-77.00203979979930,,,,5842,,,
3rd St,SE,Pennsylvania Ave,D St (S),3,Pavement Resurface/restoration,2005,100,Completed,0.19,6,LOCAL,9/1/2009 12:00:00 AM,,8/24/2005 12:00:00 AM,,399822.969440,135257.414680,38.885155541837,-77.00204041783170,,,,5844,,,
Vista St,NE,27th St,South Dakota Ave,2,Pavement Resurface/restoration,2005,100,Completed,0.30,5,COLLECTOR,7/1/2006 12:00:00 AM,,8/24/2005 12:00:00 AM,,402863.924130,139949.593060,38.92741966853380,-76.96697143405820,,,,8272,,,
Banneker Dr,NE,Bladensburg Rd,Berry Rd,2,Pavement Resurface/restoration,2004,100,Completed,0.22,5,LOCAL,4/4/2005 12:00:00 AM,,8/25/2005 12:00:00 AM,On Hold for WASA's LSR,403365.439070,139874.907680,38.92674510157990,-76.96118801665260,,,,5050,,,
11th St,NW,I St,K St,1,Pavement Resurface/restoration,2004,100,Completed,0.11,2,MINOR ARTERIAL,3/31/2004 12:00:00 AM,,9/2/2005 12:00:00 AM,,397654.734650,137119.710590,38.90192867936860,-77.02703740261760,POKA-2004-B-0016-JJ,Federal Aid Citywide Pavement Restoration,Maduabuchi Udeh,4461,Michael Jelen,Michael.Jelen@dc.gov,202-671-4542
Nebraska Ave,NW,Livingston St,32nd St,1,Pavement Resurface/restoration,2004,100,Completed,0.05,4,COLLECTOR,4/4/2005 12:00:00 AM,,8/25/2005 12:00:00 AM,,394440.598780,143940.480840,38.96335778381230,-77.06414682866620,N/A,Citywide Pavement Restoration,Paul Stephenson,5295,M. Howard and O. Hill,N/A,N/A
New Jersey Ave,NW,K St,New York Ave,3,Pavement Resurface/restoration,2005,100,Completed,0.20,6,MINOR ARTERIAL,7/1/2005 12:00:00 AM,,8/25/2005 12:00:00 AM,,398764.725310,137342.690210,38.90393961931860,-77.01424127139870,,,,8546,,,
Bay St,SE,17th St,19th St,3,Pavement Resurface/restoration,2004,100,Completed,0.20,6,LOCAL,4/4/2005 12:00:00 AM,,8/25/2005 12:00:00 AM,WASA Lead Location FY-05,401820.875710,135423.150880,38.88664668892050,-76.97901252219080,,,,3701,,,
West Virginia Ave,NE,Owen Pl,Penn St,1,Pavement Resurface/restoration,2004,100,Completed,0.04,5,MINOR ARTERIAL,7/1/2005 12:00:00 AM,,8/26/2005 12:00:00 AM,,400898.877050,137689.3296,38.907062676468,-76.989636545946,,Fedral Aid Citywide Pavement Restoration,Mohamed Abdullahi,5498,Said Cherifi,said.cherifi@dc.gov,202-671-4611
West Virginia Ave,NE,Penn St,Mount Olivet Rd,5,Pavement Resurface/restoration,2005,100,Completed,0.29,5,MINOR ARTERIAL,8/8/2005 12:00:00 AM,,8/26/2005 12:00:00 AM,Abdullahi extend the limit  during the paving ,401077.066560,137891.603170,38.90888462636720,-76.98758182229180,,,,8545,,,
Fessenden St,NW,41st St,Wisconsin Ave,2,Pavement Resurface/restoration,2004,100,Completed,0.13,3,COLLECTOR,4/4/2005 12:00:00 AM,,8/30/2005 12:00:00 AM,,392938.555260,142980.962950,38.954703409862,-77.08146818217090,N/A,City Pavement Restoration,Paul Stephenson,5257,Mike,N/A,202-671-4591
Fessenden St,NW,43rd Pl,44th St,1,Pavement Resurface/restoration,2004,100,Completed,0.07,3,COLLECTOR,4/4/2005 12:00:00 AM,,8/30/2005 12:00:00 AM,,392580.330010,142981.404610,38.954704435558,-77.085601044219,N/A,Citywide Pavement Restoration,Paul Stephenson,5258,Mike,N/A,202-671-4591
Park Rd,NW,Warder St,Georgia Ave (S),1,Pavement Resurface/restoration,2004,100,Completed,0.19,1,COLLECTOR,4/4/2005 12:00:00 AM,,8/30/2005 12:00:00 AM,,398081.520220,140565.612770,38.93297153676410,-77.022126832334,,Federal Aid Citywide Pavement Restoration,Maurice Prince,5196,,,
Fessenden St,NW,Wisconsin Ave,43rd Pl,2,Pavement Resurface/restoration,2005,100,Completed,0.13,3,COLLECTOR,7/1/2007 12:00:00 AM,,8/30/2005 12:00:00 AM,,392735.385240,142981.204160,38.95470392592270,-77.08381216441260,N/A,Citywide Pavement Restoration,Paul Stephenson,7742,M. Howard,N/A,202-671-4591
14th St,NW,S St,Wallach Pl,3,Pavement Resurface/restoration,2004,100,Completed,0.15,1/2,PRINCIPAL ARTERIAL,4/4/2005 12:00:00 AM,,9/2/2005 12:00:00 AM,,397228.911960,138592.160860,38.91519177863770,-77.03195244270690,POKA-2004-B-0016-JJ,Federal Aid Citywide Pavement Restoration,Maduabuchi Udeh,5198,Michael Jelen,Michael.Jelen@dc.gov,202-671-4542
Carlton Ave,NE,South Dakota Ave,Central Ave,1,Pavement Resurface/restoration,2004,100,Completed,0.17,5,LOCAL,4/4/2005 12:00:00 AM,,9/2/2005 12:00:00 AM,On Hold for WASA,402815.265440,140161.6409,38.92933001866850,-76.96753172671340,,WASA,,5526,,,
Fulton Pl,NE,20th St,Cul De Sac,1,Pavement Resurface/restoration,2004,100,Completed,0.05,5,LOCAL,7/4/2005 12:00:00 AM,,9/2/2005 12:00:00 AM,,402104.701280,140060.759420,38.92842323629250,-76.97572692587930,,CIP_2004-2009,,4867,,,
I St,NE,12th St,13th St,1,Pavement Resurface/restoration,2004,100,Completed,0.10,6,LOCAL,4/4/2005 12:00:00 AM,,9/2/2005 12:00:00 AM,On HOld For WASA,400930.145020,137051.709280,38.90131873589750,-76.98927691058420,,,,5577,,,
D St,NW,North Capitol St,Mitch Snyder Pl,4,Pavement Resurface/restoration,2005,100,Completed,0.25,6,COLLECTOR,8/11/2005 12:00:00 AM,,9/2/2005 12:00:00 AM,,399014.013050,136326.452960,38.89478530390440,-77.01136581686230,,,,8530,,,
Lawrence St,NE,14th St,15th St,1,Reconstruction,1999,100,Completed,0.10,5,LOCAL,9/30/2005 12:00:00 AM,,9/2/2005 12:00:00 AM,IDIQ05,401272.659680,140439.2599,38.93183448440020,-76.98532198335730,,,,2532,,,
New York Ave,NW,6th St,Mt Vernon Pl,1,Pavement Resurface/restoration,2004,100,Completed,0.13,2,PRINCIPAL ARTERIAL,3/31/2004 12:00:00 AM,,9/2/2005 12:00:00 AM,,398187.268220,137264.277370,38.90323224762290,-77.02089846863710,POKA-2004-B-0016-JJ,Federal Aid Citywide Pavement Restoration,Maduabuchi Udeh,4457,Michael Jelen,Michael.Jelen@dc.gov,202-671-4542
12th St,NW,I St,K St,1,Pavement Resurface/restoration,2004,100,Completed,0.09,2,MINOR ARTERIAL,3/31/2004 12:00:00 AM,,9/2/2005 12:00:00 AM,Location requested at obligation meeting 1/18/2001,397564.417440,137119.332450,38.90192502733820,-77.02807862359250,POKA-2004-B-0016-JJ,Federal Aid Citywide Pavement Restoration,Maduabuchi Udeh,3879,Michael Jelen,Michael.Jelen@dc.gov,202-671-4542
Central Ave,NE,Carlton Ave,Myrtle Ave,1,Pavement Resurface/restoration,2004,100,Completed,0.09,5,LOCAL,7/30/2005 12:00:00 AM,,9/2/2005 12:00:00 AM,On Hold for WASA,402876.276290,140291.606750,38.93050059352930,-76.96682754794180,,,,2929,,,
Elliott St,NE,F St,Maryland Ave,1,Pavement Resurface/restoration,2004,100,Completed,0.11,6,LOCAL,4/4/2005 12:00:00 AM,,9/2/2005 12:00:00 AM,On Hold for WASA,401170.285530,136694.453790,38.89810016334070,-76.98650908198590,,,,5548,,,
Benning Rd,SE,F St,Hanna Pl (N),3,Pavement Resurface/restoration,2005,100,Completed,0.20,7,MINOR ARTERIAL,,,9/6/2005 12:00:00 AM,,405884.867460,134671.929790,38.87986159256950,-76.93217725378890,,,,8328,,,
Florida Ave,NE,West Virginia Ave,10th St,1,Pavement Resurface/restoration,2004,100,Completed,0.03,5/6,PRINCIPAL ARTERIAL,7/1/2005 12:00:00 AM,,9/8/2005 12:00:00 AM,,400616.920410,137337.375070,38.90389239015730,-76.992887634453,,Fedral Aid Citywide Pavement Restoration,Mohamed Abdullahi,5507,Said Cherifi,said.cherifi@dc.gov,202-671-4611
Whittier Pl,NW,8th St,Georgia Ave,1,Regular Cover,2005,100,Completed,0.15,4,LOCAL,7/1/2006 12:00:00 AM,9/8/2005 12:00:00 AM,9/8/2005 12:00:00 AM,,397773.756830,144839.439680,38.97147059735570,-77.02569030033920,N/A,Citywide Pavement Restoration,Paul Stephenson,7041,Midibo Hylton,N/A,202-671-4591
1st St,NE,Riggs Rd,Kennedy St,1,Pavement Resurface/restoration,2004,100,Completed,0.09,4,LOCAL,4/4/2005 12:00:00 AM,9/8/2005 12:00:00 AM,9/8/2005 12:00:00 AM,,399456.150750,143120.9633,38.95599278594550,-77.00627452412850,N/A,Citywide pavement Restoration ,Paul Stephenson,4008,Deguzman,N/A,202-671-4591
Randle Cir,SE,32nd St,K St,1,Pavement Resurface/restoration,2004,100,Completed,0.04,7,MINOR ARTERIAL,4/4/2005 12:00:00 AM,,9/9/2005 12:00:00 AM,,403314.537280,134521.788540,38.878522507394,-76.96180087495510,,,,5717,,,
C St,NE,4th St (N)  Massachusetts ,5th St (N),2,Pavement Resurface/restoration,2005,100,Completed,0.12,6,MINOR ARTERIAL,7/5/2005 12:00:00 AM,,8/16/2005 12:00:00 AM,,400042.005980,136248.158750,38.89408055282370,-76.99951578714280,,,,8135,,,
West Virginia Ave,NE,Mount Olivet Rd,Mount Olivet Rd,0,High Accident Intersection,2004,100,Completed,0,5,MINOR ARTERIAL,,,8/17/2005 12:00:00 AM,,401233.90,138068.130010,38.91047463444150,-76.98577327377450,,,,5446,,,
37th St,NW,Porter St,Quebec St,1,Pavement Resurface/restoration,2005,100,Completed,0.06,3,LOCAL,4/4/2005 12:00:00 AM,,8/17/2005 12:00:00 AM,Completed and never reported; found in condition survey photos,393721.252950,141097.519840,38.93774277412570,-77.07242093201840,,,,5653,,,
9th St,NE,Hamlin St,Jackson St,2,Pavement Resurface/restoration,2004,100,Completed,0.14,5,MINOR ARTERIAL,7/1/2005 12:00:00 AM,7/1/2005 12:00:00 AM,8/18/2005 12:00:00 AM,,400542.398010,140062.476860,38.92844106077230,-76.99374463712690,,Fedral Aid Citywide Pavement Restoration,Mohamed Abdullahi,5426,Said Cherifi,said.cherifi@dc.gov,202-671-4611
Rodman St,NW,49th St,Fordham Rd,1,Sidewalk Construction,2005,100,Completed,0.13,3,LOCAL,7/27/2005 12:00:00 AM,,8/18/2005 12:00:00 AM,,391503.035190,141280.361630,38.93937121318440,-77.09800876114160,N/A,Citywide Pavement Restoration,Paul Stephenson,735,Mike,N/A,202-671-4591
Eastern Ave,NE,Fort Lincoln Dr,Bladensburg Rd,1,Pavement Resurface/restoration,2004,100,Completed,0.14,5,MINOR ARTERIAL,7/1/2005 12:00:00 AM,,8/22/2005 12:00:00 AM,,403741.9264,140239.941980,38.93003192133370,-76.95684418059850,,Fedral Aid Citywide Pavement Restoration,Mohamed Abdullahi,5472,Said Cherifi,said.cherifi@dc.gov,202-671-4611
3rd St,NW,Rhode Island Ave,Elm St,4,Reconstruction,2004,100,Completed,0.19,1,LOCAL,3/31/2004 12:00:00 AM,,8/22/2005 12:00:00 AM,Originally proposed 03/31/2005,398633.390010,138693.40,38.91610708067260,-77.015758101699,POKA-2004-B-0010-JJ,Rehabilitation of Special Streets in LeDroit Park Historic District,Maduabuchi Udeh,4999,Michael Jelen,Michael.Jelen@dc.gov,202-671-4542
Massachusetts Ave,SE,Fort Davis Dr,Southern Ave,4,Pavement Resurface/restoration,2004,100,Completed,0.54,7,COLLECTOR,4/4/2005 12:00:00 AM,,8/22/2005 12:00:00 AM,,404841.986430,133693.248350,38.87105160436720,-76.94420328611410,,,,5709,,,
Anacostia Fwy,SE,East Capitol St (W),Pennsylvania Ave (W),1,Pavement Resurface/restoration,4,100,Completed,1.43,7,OTHER FREEWAY AND EXPRESSWAY,,,8/22/2005 12:00:00 AM,,403093.760770,134891.891740,38.88185734556510,-76.96434359687850,,,,8650,,,
Anacostia Fwy,SE,East Capitol St (E)  Kenil,Pennsylvania Ave (E),1,Pavement Resurface/restoration,4,100,Completed,1.43,7,OTHER FREEWAY AND EXPRESSWAY,,,8/22/2005 12:00:00 AM,,403108.1097,134894.044860,38.88187669109740,-76.96417821198170,,,,8651,,,
Anacostia Fwy,SE,Pennsylvania Ave (W),Interstate 295 (W),1,Pavement Resurface/restoration,4,100,Completed,0.95,8,OTHER FREEWAY AND EXPRESSWAY,,,8/22/2005 12:00:00 AM,,401531.604160,133780.823320,38.87185251136020,-76.98235033603510,,,,8652,,,
Anacostia Fwy,SE,Pennsylvania Ave (E),Interstate 295 (E),1,Pavement Resurface/restoration,4,100,Completed,1.03,8,OTHER FREEWAY AND EXPRESSWAY,,,8/22/2005 12:00:00 AM,,401498.809730,133745.792350,38.87153699477540,-76.98272832380070,,,,8653,,,
Interstate 295,BN,Firth Sterling Ave (W),Anacostia Fwy (W),3,Pavement Resurface/restoration,4,100,Completed,0.94,8,INTERSTATE,,,8/22/2005 12:00:00 AM,,400328.055420,132877.358140,38.86371500009180,-76.99622003656150,,,,8654,,,
Interstate 295,BN,Firth Sterling Ave (E),Anacostia Fwy (E),3,Pavement Resurface/restoration,4,100,Completed,0.86,8,INTERSTATE,,,8/22/2005 12:00:00 AM,,400301.1319,132854.512630,38.86350920787950,-76.99653026830030,,,,8655,,,
Kenilworth Ave,NE,East Capitol St (M)  Anaco,Maryland Line (W),5,Pavement Resurface/restoration,4,100,Completed,2.08,7,OTHER FREEWAY AND EXPRESSWAY,,,8/22/2005 12:00:00 AM,,404711.972550,137001.976510,38.90085858841050,-76.94567881477890,,,,8656,,,
62nd St,NE,Clay St,Dix St,1,Pavement Resurface/restoration,2005,100,Completed,0.07,7,LOCAL,7/1/2010 12:00:00 AM,,8/22/2005 12:00:00 AM,,407609.009830,136200.949920,38.89362235027420,-76.91228969558570,,,,4266,,,
Brentwood Pky,NE,Mount Olivet Rd,New York Ave,1,Pavement Resurface/restoration,2004,100,Completed,0.10,5,MINOR ARTERIAL,4/4/2005 12:00:00 AM,,8/23/2005 12:00:00 AM,,400799.956320,138353.087420,38.91304212954940,-76.99077626288570,,Fedral Aid Citywide Pavement Restoration,Mohamed Abdullahi,5471,Said Cherifi,said.cherifi@dc.gov,202-671-4611
Q St,NW,44th St,Foxhall Rd,2,Pavement Resurface/restoration,2004,100,Completed,0.14,3,MINOR ARTERIAL,4/4/2005 12:00:00 AM,,12/21/2005 12:00:00 AM,,392839.757850,138096.388130,38.91070089310650,-77.08255704789590,N/A,Pavement Resurface/restoration,Paul Stephenson,5270,Mike Howard,N/A,202-671-4591
North Capitol St,BN,Michigan Ave,Harewood Rd,0,Federal Aid Resurfacing,2003,100,Completed,1.17,5,OTHER FREEWAY AND EXPRESSWAY,8/5/2003 12:00:00 AM,12/30/2005 12:00:00 AM,12/30/2005 12:00:00 AM,,399437.425250,141010.597730,38.93698200928860,-77.00648883422570, ,Rehabilitation of North Capitol Street From Michigan Ave. to Buchanan ,Eskender  Konjit,5098,Stanley Freeman,stanley.freeman@dc.gov,202-234-1458
North Capitol St,BN,Michigan Ave,Irving St,1,Bridge Construction,2003,100,Completed,0.03,5,OTHER FREEWAY AND EXPRESSWAY,7/8/2003 12:00:00 AM,12/30/2005 12:00:00 AM,12/30/2005 12:00:00 AM,,399283.012350,140131.768930,38.929065140167,-77.008268941073,N/A,N. Capitol St  NE Bridge over Irving St,Konjit Eskender,8550,Stanley Freeman,Stanley.Freeman@dc.gov,202-234-1458
Clermont Dr,NE,Fort Dr  North Capitol St,Allison St  Hawaii Ave,1,Federal Aid Resurfacing,99,100,Completed,0.28,5,PRINCIPAL ARTERIAL,11/12/2003 12:00:00 AM,12/30/2005 12:00:00 AM,12/30/2005 12:00:00 AM,,399349.252160,141830.233920,38.94436546933610,-77.00750661523780,,Rehabilitation of North Capitol St. Bridge over Irving St.,Konjit Eskender,8142,Stanley Freeman,Stanley.Freeman@DC.GOV,202-671-4590
Scale Gate Rd,NE,North Capitol St,Harewood Rd,1,Bridge Construction,1998,100,Completed,0.02,5,LOCAL,3/31/2004 12:00:00 AM,12/30/2005 12:00:00 AM,12/30/2005 12:00:00 AM,Orginally proposed for FY-05 (03/31/05);2nd Aid to State,399635.927710,140991.995620,38.93681454063580,-77.00419926273950,Bridge over N. Capitol St,Rehabilitation of Soldiers home Bridge over North Capitol St.,Konjit Eskender,4432,Stanley Freeman,Stanley.Freeman@DC.GOV,202-671-4590
T St,NW,2nd St (N),Florida Ave (E),6,Reconstruction,2004,100,Completed,0.28,1,COLLECTOR,3/31/2004 12:00:00 AM,,8/23/2005 12:00:00 AM,,398507.9640,138672.627740,38.91591975326730,-77.01720431832390,POKA-2004-B-0010-JJ,Rehabilitation of Special Streets in LeDroit Park Historic District,Maduabuchi Udeh,4997,Michael Jelen,Michael.Jelen@dc.gov,202-671-4542
6th St,NW,Florida Ave,U St,2,Reconstruction,2004,100,Completed,0.07,1,LOCAL,4/4/2005 12:00:00 AM,,8/23/2005 12:00:00 AM,,398258.4184,138678.316090,38.91597053672650,-77.020081784644,POKA-2004-B-0010-JJ,Rehabilitation of Special Streets inLeDroit Park Historic District,Maduabuchi Udeh,5002,Michael Jelen,Michael.Jelen@dc.gov,202-671-4542
Benning Rd,SE,Southern Ave,Southern Ave,0,High Accident Intersection,2004,100,Completed,0,7,LOCAL,,,10/17/2005 12:00:00 AM,#14-5-223 10/17/04  #14-5-225 10/17/04  #14-10-148 10/17/04,405987.309990,134246.399990,38.87602756223890,-76.931000316995,,,,5445,,,
Sheridan Rd,SE,Howard Rd,Stanton Rd (W),2,Pavement Resurface/restoration,2004,100,Completed,0.03,8,COLLECTOR,3/31/2004 12:00:00 AM,,10/18/2005 12:00:00 AM,,400562.119770,132458.095420,38.85993798779130,-76.99352341217030,FY-04 per Sylvester,,,3191,,,
Stanton Rd,SE,Martin Luther King Jr Ave,Dunbar Rd,1,Pavement Resurface/restoration,2004,100,Completed,0.01,8,COLLECTOR,3/31/2004 12:00:00 AM,,10/18/2005 12:00:00 AM,,400470.8744,132354.448090,38.859004342530,-76.99457478694240,,FedAid_6YR_CIP,,3193,,,
Benning Rd,SE,East Capitol St,Hanna Pl (N),10,Pavement Resurface/restoration,2005,100,Completed,0.73,7,MINOR ARTERIAL,10/17/2005 12:00:00 AM,10/28/2005 12:00:00 AM,10/18/2005 12:00:00 AM,,405603.686150,135220.774010,38.88480762913760,-76.93541337527630,,,,8561,,,
36th St,NW,Reno Rd,Warren St,1,Pavement Resurface/restoration,2005,100,Completed,0.05,3,LOCAL,7/1/2007 12:00:00 AM,10/19/2005 12:00:00 AM,10/19/2005 12:00:00 AM,,393944.888280,141836.9193,38.94440506658060,-77.06984798218420,N/A,Citywide Pavement Project,Paul Stephenson,6775,Rodney Olive,,202-671-4591
36th St,NW,Alton Pl,Albemarle St,1,Pavement Resurface/restoration,2005,100,Completed,0.06,3,LOCAL,7/1/2008 12:00:00 AM,10/19/2005 12:00:00 AM,10/19/2005 12:00:00 AM,,393945.554650,142179.684350,38.94749279430430,-77.06984332044030,N/A,Citywide Pavement Restoration,Paul Stephenson,6776,Rodney Olive,,202-671-4591
Foote St,NE,58th St,60th St  Eastern Ave,2,Pavement Resurface/restoration,2005,100,Completed,0.15,7,LOCAL,9/30/2005 12:00:00 AM,10/19/2005 12:00:00 AM,10/19/2005 12:00:00 AM,,407256.019750,136591.785560,38.89714612359640,-76.91635453977640,,Citywide Pavement Restoration Local Streets ward7 8,Sylvester Okapala,8832,Sylvester Okapala,,202-671-4613
D St,SE,33rd St,Minnesota Ave,2,Pavement Resurface/restoration,2005,100,Completed,0.15,7,LOCAL,10/19/2005 12:00:00 AM,10/19/2005 12:00:00 AM,10/19/2005 12:00:00 AM,,403611.105250,135177.260220,38.88442608198950,-76.95837956751970,,Citywide Pavement Restoration Local Streets ward7 8,Sylvester Okapala,8833,Sylvester Okapala,,202-671-4613
Fort Dr,NE,Half Pl,1st St,1,Federal Aid Resurfacing,2004,100,Completed,0.10,5,MINOR ARTERIAL,4/4/2005 12:00:00 AM,,10/19/2005 12:00:00 AM,,399439.707740,141530.352030,38.94166410970280,-77.00646293201450,,Street Resurfacing,Abdullahi Mohamed,3160,Morgan Prince,morgan.prince@dc.gov,202-671-4627
Grant St,NE,44th St,46th St,1,Pavement Resurface/restoration,2004,100,Completed,0.14,7,LOCAL,4/4/2005 12:00:00 AM,10/19/2005 12:00:00 AM,10/19/2005 12:00:00 AM,,405387.258080,136725.631550,38.89836529515790,-76.93789606837070,,Citywide Pavement Restoration Local Streets ward7 8,Sylvester Okapala,5561,Sylvester Okapala,,202-671-4613
36th St,NW,Warren St,Yuma St,1,Pavement Resurface/restoration,2004,100,Completed,0.10,3,LOCAL,4/4/2005 12:00:00 AM,10/19/2005 12:00:00 AM,10/19/2005 12:00:00 AM,,393944.881590,141961.609990,38.94552831524580,-77.06984915990840,,Citywide Pavement Project,Paul Stephenson,5022,Rodney Olive,,202-871-4591
18th St,NW,Monroe St,Newton St,1,Pavement Resurface/restoration,2005,100,Completed,0.06,1,LOCAL,4/4/2005 12:00:00 AM,,10/20/2005 12:00:00 AM,,396420.071770,140650.100030,38.93372742497870,-77.04128962641720,POKA-2003-B-048-JJ,Citywide Pavement Restoration Contract (Local Streets),Maduabuchi Udeh,8681,Michael Jelen,Michael.Jelen@dc.gov,202-671-4542
Puerto Rico Ave,NE,Taylor St,6th St,1,Federal Aid Resurfacing,2004,100,Completed,0.49,5,COLLECTOR,7/21/2005 12:00:00 AM,,10/20/2005 12:00:00 AM,2 Year SP 2000 - 2002,400142.663130,141706.302370,38.943249288031,-76.99835435418840,,Street Resurfacing,Abdullahi Mohamed,2872,Morgan Prince,morgan.prince@dc.gov,202-671-4627
6th St,NE,Puerto Rico Ave,Cul De Sac (N),1,Federal Aid Resurfacing,2004,100,Completed,0.11,5,LOCAL,4/4/2005 12:00:00 AM,,10/21/2005 12:00:00 AM,,400077.049630,142132.733030,38.94709070420830,-76.99911117025450,,Street Resurfacing,Abdullahi Mohamed,6216,MORGAN PRINCE,morgan.prince@dc.gov,202-671-4627
Firth Sterling Ave,SE,Suitland Pky,Suitland Pky,0,High Accident Intersection,2004,100,Completed,0,8,COLLECTOR,,,10/22/2005 12:00:00 AM,#14-8-2 10/17/04  #14-8-3 10/22/04  #14-8-4 08/03/04,400196.206720,132727.9342,38.86236896634570,-76.99773928368310,,,,5396,,,
Oakwood Ter,NW,Cul De Sac,17th St,1,Pavement Resurface/restoration,2004,100,Completed,0.08,1,LOCAL,4/4/2005 12:00:00 AM,,10/24/2005 12:00:00 AM,,396666.240510,140781.426110,38.93491141830850,-77.03845104154210,POKA-2003-B-0048-JJ,Citywide Pavement Restoration Contract (Local Streets),Maduabuchi Udeh,5035,Michael Jelen,Michael.Jelen@dc.gov,202-671-4542
East Capitol St,BN,Anacostia Fwy (W)  Kenilwo,Southern Ave,29,Pavement Resurface/restoration,4,100,Completed,2.44,7,OTHER FREEWAY AND EXPRESSWAY,,,10/24/2005 12:00:00 AM,,403608.132030,135772.425660,38.88978756951090,-76.95841071074770,,,,8658,,,
Newton St,NW,Holmead Pl,14th St (N),1,Pavement Resurface/restoration,2004,100,Completed,0.11,1,LOCAL,4/4/2005 12:00:00 AM,,10/24/2005 12:00:00 AM,WASA Lead Location FY-05,397242.84,140511.491780,38.932481766955,-77.03179955256940,POKA-2003-B-0048-JJ,Citywide Pavement Restoration Contract (Local Streets),Maduabuchi Udeh,3800,Michael Jelen,Michae.Jelen@dc.gov,202-671-4542
Farragut Pl,NE,6th Pl,South Dakota Ave,1,Pavement Resurface/restoration,2005,100,Completed,0.15,5,LOCAL,8/8/2005 12:00:00 AM,,10/25/2005 12:00:00 AM,,400282.619610,142595.867140,38.95126270191770,-76.99673956360060,,,,7161,,,
S St,SE,28th Pl,29th St,1,Pavement Resurface/restoration,2004,100,Completed,0.05,7,LOCAL,4/4/2005 12:00:00 AM,10/28/2005 12:00:00 AM,10/26/2005 12:00:00 AM,,402926.735010,133413.783610,38.86854253255740,-76.96627490585260,,Citywide Pavement Restoration Local Streets ward7 8,Sylvester Okpala,5660,Sylvester Okapala,,202-671-4613
East Capitol St,BN,Anacostia Fwy (E)  Kenilwo,Southern Ave,28,Pavement Resurface/restoration,4,100,Completed,2.41,7,OTHER FREEWAY AND EXPRESSWAY,,,10/26/2005 12:00:00 AM,,405242.635810,135772.201660,38.88977732416570,-76.93957053888160,,,,8659,,,
17th St,NW,Pennsylvania Ave,H St,1,Pavement Resurface/restoration,2005,100,Completed,0.10,2,PRINCIPAL ARTERIAL,7/1/2006 12:00:00 AM,,11/28/2005 12:00:00 AM,,396577.896570,136851.716860,38.89951096366970,-77.03945039902620,POKA-2004-B-0016-JJ,Federal Aid City Wide Pavement Restoration Contract,Maduabuchi Udeh,6474,Michael Jelen,Michael.Jelen@dc.gov,202-671-4542
19th St,NW,F St,H St (S),2,Pavement Resurface/restoration,2005,100,Completed,0.15,2,MINOR ARTERIAL,7/1/2006 12:00:00 AM,,11/28/2005 12:00:00 AM,,396229.488630,136735.796830,38.89846528902880,-77.04346624866890,POKA-2004-B-0016-JJ,Federal Aid City Wide Pavement Restoration Contract,Maduabuchi Udeh,6477,Michael Jelen,Michael.Jelen@dc.gov,202-671-4542
Eastern Ave,NE,Hamilton St,Kennedy St,3,Pavement Resurface/restoration,2004,100,Completed,0.25,5,MINOR ARTERIAL,7/1/2006 12:00:00 AM,,9/9/2005 12:00:00 AM,,400822.319230,143162.369250,38.95636556509040,-76.99051264878990,,,,8156,,,
New York Ave,NW,H St,14th St,1,Pavement Resurface/restoration,2004,100,Completed,0.11,2,MINOR ARTERIAL,3/31/2004 12:00:00 AM,,9/9/2005 12:00:00 AM,,397298.683710,136869.870430,38.89967700803060,-77.03114115470830,POKA-2004-B-0016-JJ,Federal Aid Citywide Pavement Restoration,Maduabuchi Udeh,4458,Michael Jelen,Michael.Jelen@dc.gov,202-671-4542
Massachusetts Ave,NW,20th St,22nd St,3,Pavement Resurface/restoration,2004,100,Completed,0.23,2,PRINCIPAL ARTERIAL,4/4/2005 12:00:00 AM,,9/12/2005 12:00:00 AM,,395937.669050,138107.5488,38.910821210406,-77.04683844184760,POKA-2004-B-0016-JJ,Federal Aid Citywide Pavement Restoration,Maduabuchi Udeh,5230,Michael Jelen,Michael.Jelen@dc.gov,202-671-4542
16th St,NW,M St,P St,4,Reconstruction,2004,100,Completed,0.28,2,PRINCIPAL ARTERIAL,4/3/2004 12:00:00 AM,10/30/2005 12:00:00 AM,9/13/2005 12:00:00 AM,,396831.687290,137754.915070,38.90764824238150,-77.03652883735790,POKA-2003-B-0046-JJ      NH-1103(027)&,Rehabilitation of 16th Street Underpass at Scott Circle,Maduabuchi Udeh,5182,Michael Jelen,Michael.Jelen@dc.gov,202-671-4542
Kenilworth Ave,NE,Anacostia Fwy (E),Maryland Line (E),4,Federal Aid Resurfacing,2004,100,Completed,2.06,7,OTHER FREEWAY AND EXPRESSWAY,5/16/2005 12:00:00 AM,5/16/2006 12:00:00 AM,9/15/2005 12:00:00 AM,,404731.607780,137004.966240,38.90088541548870,-76.94545243278220,FY-04 per Sylvester,NHS/STP - IDIQ,Zahra Dorriz,5125,Ali Shakeri,,671-4612
Q St,NW,Florida Ave (E),1st St,1,Pavement Resurface/restoration,2004,100,Completed,0.13,5,MINOR ARTERIAL,7/1/2005 12:00:00 AM,,9/15/2005 12:00:00 AM,,399046.835010,138139.88,38.91112133209170,-77.01098998321760,,Fedral Aid Citywide Pavement Restoration,Mohamed Abdullahi,5484,Said Cherifi,said.cherifi@dc.gov,202-671-4611
Branch Ave,SE,Q St,Southern Ave,15,Pavement Resurface/restoration,2005,100,Completed,1.08,7,MINOR ARTERIAL,,,9/15/2005 12:00:00 AM,,403546.634530,132759.854520,38.86264938874560,-76.95913510851540,,Restoration OF NHS/STP Routes (Various Locations),Zohra Dorris,8524,Ali Shakeri,,671-4612
4th St,SE,East Capitol St,Pennsylvania Ave,3,Design,2004,100,Completed,0.25,6,COLLECTOR,4/4/2005 12:00:00 AM,,9/16/2005 12:00:00 AM,2 Year CIP 2000 - 2002,399950.035740,135588.670810,38.88813963925680,-77.00057590187280,,,,2700,,,
16th St,NE,C St,Isherwood St,2,Regular Cover,1999,100,Completed,0.15,6,LOCAL,3/31/2004 12:00:00 AM,9/15/2003 12:00:00 AM,9/16/2005 12:00:00 AM,2 Year CIP 2001 - 2003,401543.268770,136283.309760,38.89439585245330,-76.98221029748930,,,,2648,,,
Duncan Pl,NE,12th St,13th St,1,Pavement Resurface/restoration,2004,100,Completed,0.10,6,LOCAL,4/4/2005 12:00:00 AM,,9/21/2005 12:00:00 AM,On Hold for WASA,400930.140190,136398.784920,38.89543695755480,-76.98927785035930,,WASA,,5537,,,
Parkside Dr,NW,West Beach Dr,Yorktown Rd,3,Pavement Resurface/restoration,2004,100,Completed,0.45,4,LOCAL,4/4/2005 12:00:00 AM,10/31/2005 12:00:00 AM,9/21/2005 12:00:00 AM,,395984.771260,146491.907910,38.98635003959210,-77.04634443322540,N/A,Citywide Pavement Restoraction,Paul Stephenson,5808,Alfredo Deguzman and Madibo,N/A,202-671-4591
V St,NW,12th St,13th St,1,Pavement Resurface/restoration,2004,100,Completed,0.08,1,LOCAL,,,9/21/2005 12:00:00 AM,,397497.874460,138916.2448,38.918112040864,-77.02885231189390,POKA-2003-B-0048-JJ,Citywide Pavement Restoration Contract (Local Streets),Maduabuchi Udeh,8557,Michael Jelen,Michael.Jelen@dc.gov,
Galloway St,NE,4th St,South Dakota Ave,1,Federal Aid Resurfacing,2004,100,Completed,0.12,5,COLLECTOR,7/5/2005 12:00:00 AM,,9/21/2005 12:00:00 AM,,400184.095930,142742.439110,38.952583088116,-76.997876141045,,Street Resurfacing,Abdullahi Mohamed,3174,Morgan Prince,morgan.prince@dc.gov,202-671-4627
16th St,NE,West Virginia Ave,New York Ave,2,Regular Cover,1999,100,Completed,0.14,5,LOCAL,3/31/2004 12:00:00 AM,7/31/2003 12:00:00 AM,9/21/2005 12:00:00 AM,2 Year CIP 2001 - 2003,401640.584420,138687.327520,38.91605190901990,-76.98108276949340,,,,2528,,,
Crittenden St,NE,12th St,South Dakota Ave,1,Reconstruction,1999,100,Completed,0.02,5,LOCAL,3/31/2004 12:00:00 AM,8/18/2003 12:00:00 AM,9/21/2005 12:00:00 AM,2 Year CIP 2001 - 2003,400866.6743,142154.608480,38.94728734022970,-76.99000218399670,,,,2529,,,
King Pl,NW,W St,Calvert St,1,Pavement Resurface/restoration,2004,100,Completed,0.26,3,LOCAL,4/4/2005 12:00:00 AM,9/21/2005 12:00:00 AM,9/21/2005 12:00:00 AM,,391713.751730,139236.791520,38.92096412594070,-77.09555356713850,N/A,Citywide Pavement Restoration,Paul Stephenson,4508,Alfredo Deguzman,N/A,202-671-4591
Rhode Island Ave,NE,Central Ave,Monroe St,1,Pavement Resurface/restoration,2004,100,Completed,0.07,5,PRINCIPAL ARTERIAL,7/1/2005 12:00:00 AM,,9/22/2005 12:00:00 AM,,402725.216350,140538.538340,38.93272551024350,-76.96856876032110,,Fedral Aid Citywide Pavement Restoration,Mohamed Abdullahi,5487,Said Cherifi,said.cherifi@dc.gov,202-671-4611
Delaware Ave,NE,2nd St,M St,1,Pavement Resurface/restoration,2003,100,Completed,0.11,6,LOCAL,,,9/22/2005 12:00:00 AM,,399711.051740,137448.560190,38.90489415378220,-77.00333127981590,,,,5010,,,
Irving St,NE,24th St,25th St,1,Pavement Resurface/restoration,2004,100,Completed,0.05,5,LOCAL,4/4/2005 12:00:00 AM,,9/22/2005 12:00:00 AM,On Hold for WASA,402457.560030,140142.578180,38.92915936904610,-76.97165718792420,,,,5581,,,
Q St,SE,28th Pl,30th St,2,Pavement Resurface/restoration,2005,100,Completed,0.11,7,LOCAL,,,9/22/2005 12:00:00 AM,,402971.277310,133657.627930,38.87073903171670,-76.965760586123,,,,8728,,,
I St,SE,7th St,8th St,1,Federal Aid Resurfacing,1998,100,Completed,0.05,6,COLLECTOR,12/25/1997 12:00:00 AM,1/24/1998 12:00:00 AM,9/25/2005 12:00:00 AM,,400383.525050,134605.611070,38.87928377703820,-76.99557993288870,,,Tim Martin,2130,,,
Grant Rd,NW,30th St,32nd St,1,Pavement Resurface/restoration,2004,100,Completed,0.19,3,LOCAL,4/4/2005 12:00:00 AM,,9/26/2005 12:00:00 AM,Temp Street,394505.981720,142612.764160,38.95139777927570,-77.06338177509640,N/A,Citywide Pavement Restoration,Pual Stephenson,5031,Charles Daniel,N/A,202-671-4591
Ontario Rd,NW,Lanier Pl,Ontario Pl,2,Pavement Resurface/restoration,2004,100,Completed,0.09,1,LOCAL,4/4/2005 12:00:00 AM,,9/23/2005 12:00:00 AM,,396375.583550,139733.989250,38.92547463401540,-77.04179789988880,POKA-2003-B-0048-JJ,Citywide Pavement Restoration Contract,Maduabuchi Udeh,5806,Michael Jelen,Michael.Jelen@dc.gov,202-671-4542
16th St,NW,Alaska Ave,Maryland Line,18,Street Light Projects,2004,100,Completed,1.24,4,PRINCIPAL ARTERIAL,,,9/23/2005 12:00:00 AM,,396851.428990,146210.768170,38.98382100928830,-77.036340036030,,,,8604,,,
Ontario Pl,NW,Ontario Rd,Adams Mill Rd,1,Pavement Resurface/restoration,2004,100,Completed,0.16,1,LOCAL,3/31/2004 12:00:00 AM,,9/23/2005 12:00:00 AM,2 Year SP 2000 - 2002,396219.2727,139651.838820,38.92473393835440,-77.043600072572,POKA-2003-B-0048-JJ,Citywide Pavement Restoration Contract (Local Streets),Maduabuchi Udeh,2811,Michael Jelen,Michael.Jelen@dc.gov,202-671-4542
North Capitol St,BN,Buchanan St,Crittenden St,1,Federal Aid Resurfacing,2004,100,Completed,0.05,4/5,PRINCIPAL ARTERIAL,,,9/27/2005 12:00:00 AM,,399249.386810,142208.584230,38.94777367566160,-77.00865901268490,WASA FY06 LSR,Street Resurfacing,Mohamed Abdulahi,8601,Morgan Prince,morgan.prince@dc.gov,202-671-4627
Holbrook Ter,NE,Montello Ave,Queen St,1,Pavement Resurface/restoration,2004,100,Completed,0.16,5,LOCAL,4/4/2005 12:00:00 AM,,9/27/2005 12:00:00 AM,On Hold for WASA,401243.863680,137697.792160,38.90713848963470,-76.98565906446950,,,,5884,,,
North Capitol St,BN,Crittenden St,Farragut Pl,2,Federal Aid Resurfacing,2004,100,Completed,0.20,4/5,PRINCIPAL ARTERIAL,7/21/2005 12:00:00 AM,,9/27/2005 12:00:00 AM,,399237.095290,142411.861540,38.94960484331020,-77.00880103273680,WASA FY-06 LSR,Street Resurfacing,Abdullahi Mohamed,3158,Morgan Prince,morgan.prince@dc.gov,202-671-4627
Trinidad Ave,NE,Simms Pl,Mount Olivet Rd,1,Pavement Resurface/restoration,2004,100,Completed,0.04,5,COLLECTOR,7/1/2005 12:00:00 AM,,9/28/2005 12:00:00 AM,,401525.760060,137873.758270,38.90872320900080,-76.98240859251570,,Fedral Aid Citywide Pavement Restoration,Mohamed Abdullahi,5496,Said Cherifi,said.cherifi@dc.gov,202-671-4611
Tewkesbury Pl,NW,Cul De Sac,13th St,1,Pavement Resurface/restoration,2004,100,Completed,0.08,4,LOCAL,4/4/2005 12:00:00 AM,9/28/2005 12:00:00 AM,9/28/2005 12:00:00 AM,,397493.069470,144484.406850,38.96827162049590,-77.02892806516840,N/A,Citywide Pavement Project,Paul Stephenson,5877,Midibo Hylton ,N/A,202-671-4591
1st St,NE,Patterson St,N St,1,Pavement Resurface/restoration,2004,100,Completed,0.05,6,COLLECTOR,7/1/2005 12:00:00 AM,,9/29/2005 12:00:00 AM,,399489.522780,137664.76,38.906841656370,-77.00588544430470,,Fedral Aid Citywide Pavement Restoration,Mohamed Abdullahi,5515,Said Cherifi,said.cherifi@dc.gov,202-671-4611
3rd St,SE,East Capitol St,C St,4,Pavement Resurface/restoration,2005,100,Completed,0.26,6,LOCAL,4/4/2005 12:00:00 AM,,9/29/2005 12:00:00 AM,,399823.198940,135564.569980,38.887922513523,-77.00203785169060,Dan's Projects,,,7510,,,
L St,NE,Bladensburg Rd,19th St,4,Pavement Resurface/restoration,2004,100,Completed,0.26,5,LOCAL,4/4/2005 12:00:00 AM,,9/29/2005 12:00:00 AM,WASA Lead Location FY-05,401854.017180,137317.869530,38.90371493858570,-76.97862541909170,,,,5838,,,
Alabama Ave,SE,G St,E St,3,Pavement Resurface/restoration,2004,100,Completed,0.21,7,LOCAL,,,9/29/2005 12:00:00 AM,,405269.777830,134875.312250,38.881697641993,-76.939264563372,,CITYWIDE PAVEMENT RESTORATION LOCAL STREETS,ZAHRA DORRIZ,9388,RAHSAAN FRENCH,,
Fort Dr,NW,Nebraska Ave (W),Albemarle St,2,Regular Cover,2004,100,Completed,0.09,3,LOCAL,3/31/2004 12:00:00 AM,,9/30/2005 12:00:00 AM,Completed never reported ,393193.314330,142158.832830,38.94729945148560,-77.078520859264,,CIP_2004-2009,,2358,,,
Baker St,NE,34th St,Kenilworth Ave (W),1,Pavement Resurface/restoration,2005,100,Completed,0.09,7,LOCAL,4/4/2005 12:00:00 AM,,9/30/2005 12:00:00 AM,,403756.723940,136104.420920,38.89277768373460,-76.95669614467810,,,,7121,,,
East Capitol St,BN,North Carolina Ave (E),13th St (N),1,Pavement Resurface/restoration,2004,100,Completed,0.03,6,COLLECTOR,7/1/2005 12:00:00 AM,,9/30/2005 12:00:00 AM,,400988.695810,135836.953050,38.89037570441760,-76.98860366157970,,Fedral Aid Citywide Pavement Restoration,Mohamed Abdullahi,5612,Said Cherifi,said.cherifi@dc.gov,202-671-4611
43rd St,NW,Ingomar St,Jenifer St,2,Upgrading,2004,100,Completed,0.07,3,LOCAL,3/31/2004 12:00:00 AM,,9/30/2005 12:00:00 AM,Completed but never reported 2 Year CIP 2001 - 2003,392740.039480,143404.589250,38.95851792692260,-77.08376295021860,,,,2598,,,
Dix St,NE,34th St,36th St,3,Reconstruction,1999,100,Completed,0.15,7,LOCAL,1/6/2003 12:00:00 AM,11/20/2003 12:00:00 AM,9/30/2005 12:00:00 AM,Ongoing Activities:  Only AC Surface placement remains.,403803.669990,136325.330010,38.89476751211850,-76.95615377335410,,Local Street Upgr-W7,Sylvester Okpala,2624,,,
29th Pl,NW,Cul De Sac (S),Garfield St,1,Pavement Resurface/restoration,2004,100,Completed,0.12,3,LOCAL,,,9/30/2005 12:00:00 AM,Completed but never update,394945.551740,139731.227170,38.92544269041430,-77.058289448140,,,,5551,,,
Fort Dr,NE,Clermont Dr,Half Pl,1,Pavement Resurface/restoration,2004,100,Completed,0.06,5,MINOR ARTERIAL,4/4/2005 12:00:00 AM,7/19/2005 12:00:00 AM,10/3/2005 12:00:00 AM,,399350.816290,141594.145190,38.94223871569340,-77.00748834902750,,Fedral Aid Citywide Pavement Restoration,Mohamed Abdullahi,5475,Said Cherifi,said.cherifi@dc.gov,202-671-4611
1st St,NW,C St,F St,4,Pavement Resurface/restoration,2004,100,Completed,0.26,6,COLLECTOR,3/31/2004 12:00:00 AM,,10/3/2005 12:00:00 AM,,398945.5159,136398.9687,38.89543847275460,-77.01215551879490,,CIP_2004-2009,Mohamed Abdullahi,4851,Said Cherifi,said.cherifi@dc.gov,202-671-4611
Potomac Ave,SW,Q St  South Capitol St,1st St  R St,2,Pavement Resurface/restoration,2005,100,Completed,0.18,6,COLLECTOR,,,10/3/2005 12:00:00 AM,,399075.226170,133585.412470,38.87009301899040,-77.01065650335070,,Street Resurfacing of Ward 5 & 6,Mohamed Abdullahi,8602,Said Cherifi,said.cherifi@dc.gov,202-671-4611
Lanier Pl,NW,Ontario Rd,Adams Mill Rd,1,Pavement Resurface/restoration,2004,100,Completed,0.20,1,LOCAL,3/31/2004 12:00:00 AM,,10/4/2005 12:00:00 AM,,396326.470330,139604.5713,38.92430859221830,-77.04236359615690,POKA-2003-B-oo48-JJ,Citywide Pavement Restoration Contract (Local Streets),Maduabuchi Udeh,3777,Michael Jelen,Michael.Jelen@dc.gov,202-671-4542
East Capitol St,BN,2nd St,3rd St,1,Pavement Resurface/restoration,2004,100,Completed,0.08,6,COLLECTOR,7/1/2005 12:00:00 AM,,10/6/2005 12:00:00 AM,,399759.055010,135773.869120,38.88980794368670,-77.00277726350260,,Fedral Aid Citywide Pavement Restoration,Mohamed Abdullahi,5608,Said Cherifi,said.cherifi@dc.gov,202-671-4611
13th St,NE,Wylie St,I St,1,Pavement Resurface/restoration,2004,100,Completed,0.04,6,COLLECTOR,7/1/2005 12:00:00 AM,,10/6/2005 12:00:00 AM,,401014.049690,137020.60,38.90103839962460,-76.98830966942170,,Fedral Aid Citywide Pavement Restoration,Mohamed Abdullahi,5570,Said Cherifi,said.cherifi@dc.gov,202-671-4611
New Jersey Ave,NW,F St,G St,2,Pavement Resurface/restoration,2004,100,Completed,0.07,6,COLLECTOR,7/1/2005 12:00:00 AM,,10/7/2005 12:00:00 AM,,398955.538840,136662.796760,38.89781514386820,-77.01204038092290,,Fedral Aid Citywide Pavement Restoration,Mohamed Abdullahi,5668,Said Cherifi,said.cherifi@dc.gov,202-671-4611
15th St,NE,Ames Pl,Constitution Ave,1,Pavement Resurface/restoration,2004,100,Completed,0.04,6,COLLECTOR,7/1/2005 12:00:00 AM,,10/7/2005 12:00:00 AM,,401418.859840,135988.530010,38.89174057715890,-76.98364500371570,,Fedral Aid Citywide Pavement Restoration,Mohamed Abdullahi,5574,Said Cherifi,said.cherifi@dc.gov,202-671-4611
East Capitol St,BN,C St,Anacostia Fwy (E),2,Pavement Resurface/restoration,2004,100,Completed,0.52,6/7,PRINCIPAL ARTERIAL,7/1/2005 12:00:00 AM,,10/10/2005 12:00:00 AM,,403187.655260,135773.188570,38.88979606719380,-76.96325735025040,FY-04 per Sylvester,Fedral Aid Citywide Pavement Restoration,Mohamed Abdullahi,5142,Said Cherifi,said.cherifi@dc.gov,202-671-4611
Randolph St,NE,25th Pl,26th St,1,Pavement Resurface/restoration,2004,100,Completed,0.05,5,COLLECTOR,7/1/2005 12:00:00 AM,,10/10/2005 12:00:00 AM,,402544.844030,141101.249340,38.93779512033870,-76.97064699466560,,Fedral Aid Citywide Pavement Restoration,Mohamed Abdullahi,5485,Said Cherifi,said.cherifi@dc.gov,202-671-4611
South Dakota Ave,NE,Delafield St,Riggs Rd,10,Federal Aid Resurfacing,2004,100,Completed,0.68,5,PRINCIPAL ARTERIAL,7/4/2005 12:00:00 AM,,10/10/2005 12:00:00 AM,,400194.186650,142828.694310,38.95336009599980,-76.99775970304580,Per Berehager  construction will begin in FY-04,FedAid_6YR_CIP,Abdullahi Mohamed,4769,MORGAN PRINCE,morgan.prince@dc.gov,202-671-4627
Wheeler Rd,SE,Congress St,Congress St,0,Traffic Signal Work,2004,100,Completed,0,8,MINOR ARTERIAL,,,10/10/2005 12:00:00 AM,,400549.92,130311.510010,38.84060061984960,-76.993665690655,,,ELIJAH ROBINSON,6058,,,202.671.2829
New Jersey Ave,NW,H St,I St,1,Pavement Resurface/restoration,2004,100,Completed,0.08,6,MINOR ARTERIAL,7/1/2005 12:00:00 AM,,10/10/2005 12:00:00 AM,,398862.729180,136989.686080,38.90075976521480,-77.01311081700630,,Fedral Aid Citywide Pavement Restoration,Mohamed Abdullahi,5670,Said Cherifi,said.cherifi@dc.gov,202-671-4611
Mount Olivet Rd,NE,Brentwood Pky,West Virginia Ave,5,Pavement Resurface/restoration,4,100,Completed,0.33,5,MINOR ARTERIAL,,,10/10/2005 12:00:00 AM,,400999.723070,138177.810940,38.91146297517070,-76.98847314734820,,Street Resurfacing of Ward 5 & 6,Mohamed Abdullahi,8603,Said Cherifi,said.cherifi@dc.gov,202-671-4611
Oak St,NW,16th St,Brown St (S),1,Pavement Resurface/restoration,2005,100,Completed,0.04,1,LOCAL,7/1/2006 12:00:00 AM,,10/11/2005 12:00:00 AM,,396813.612830,140800.560740,38.93508433560740,-77.03675136212950,POKA-2003-B-0048-JJ,Citywide Pavement Restoration Contract (Local Streets),Maduabuchi Udeh,5034,Michael Jelen,Michael.Jelen@dc.gov,202-671-4542
Michigan Ave,NE,14th St,16th St,1,Pavement Resurface/restoration,2004,100,Completed,0.11,5,MINOR ARTERIAL,4/4/2005 12:00:00 AM,7/27/2005 12:00:00 AM,10/11/2005 12:00:00 AM,,401329.795810,141629.294430,38.94255458357490,-76.98466070672570,,Fedral Aid Citywide Pavement Restoration,Mohamed Abdullahi,5480,Said Cherifi,said.cherifi@dc.gov,202-671-4611
C St,NE,20th St,22nd St,1,Pavement Resurface/restoration,2004,100,Completed,0.06,6/7,MINOR ARTERIAL,4/4/2005 12:00:00 AM,,10/11/2005 12:00:00 AM,,402109.088260,136161.743710,38.89329956535640,-76.97568830712590,,Fedral Aid Citywide Pavement Restoration,Mohamed Abdullahi,5675,Said Cherifi,said.cherifi@dc.gov,202-671-4611
Virginia Ave,SE,6th St (S),7th St (S),1,Pavement Resurface/restoration,2004,100,Completed,0.16,6,COLLECTOR,7/1/2005 12:00:00 AM,,10/11/2005 12:00:00 AM,,400208.169850,134569.685370,38.87896020326610,-76.99760088543150,,Fedral Aid Citywide Pavement Restoration,Mohamed Abdullahi,5674,Said Cherifi,said.cherifi@dc.gov,202-671-4611
Oak St,NW,Brown St (N),Cul De Sac,1,Pavement Resurface/restoration,2004,100,Completed,0.09,1,LOCAL,3/31/2004 12:00:00 AM,,10/11/2005 12:00:00 AM,2 Year SP 2000 - 2002,396752.813270,140870.012580,38.935709755940,-77.03745294466570,POKA-2003-B-0048-JJ,Citywide Pavement Restoration Contract (Local Streets),Maduabuchi Udeh,2810,Michael Jelen,Michael.Jelen@dc.gov,202-671-4542
Florida Ave,NE,New York Ave,O St,1,Pavement Resurface/restoration,2004,100,Completed,0.05,5/6,PRINCIPAL ARTERIAL,7/1/2005 12:00:00 AM,,10/12/2005 12:00:00 AM,,399636.766880,137873.165050,38.90871911431310,-77.00418793333830,,Fedral Aid Citywide Pavement Restoration,Mohamed Abdullahi,5503,Said Cherifi,said.cherifi@dc.gov,202-671-4611
North Carolina Ave,NE,East Capitol St (E),13th St,1,Pavement Resurface/restoration,2004,100,Completed,0.04,6,COLLECTOR,4/4/2005 12:00:00 AM,,10/13/2005 12:00:00 AM,,400988.606330,135850.4560,38.89049734413790,-76.98860467355460,,Fedral Aid Citywide Pavement Restoration,Mohamed Abdullahi,5671,Said Cherifi,said.cherifi@dc.gov,202-671-4611
Elder St,NW,8th St,Georgia Ave,2,Pavement Resurface/restoration,2005,100,Completed,0.11,4,LOCAL,7/1/2009 12:00:00 AM,,10/14/2005 12:00:00 AM,,397792.1952,145484.836130,38.97728452389790,-77.02547960481930,N/A,Citywide Pavement Restoration,Paul Stephenson,6858,Rodney Olive,N/A,202-671-4591
Benning Rd,SE,G St,G St,0,High Accident Intersection,2004,100,Completed,0,7,MINOR ARTERIAL,,,10/17/2005 12:00:00 AM,#14-5-222 was completed on 10/17/04  #14-6-78 was completed on 10/05/04,405809.86,134852.810010,38.88149153034730,-76.93304018090430,,,,5394,,,
School St,SW,4th St,6th St,1,Pavement Resurface/restoration,2004,100,Completed,0.13,2,LOCAL,3/31/2004 12:00:00 AM,,10/28/2005 12:00:00 AM,Added to IDIQ04 per Team 1,398374.8864,135121.524510,38.88392990708460,-77.01873040356220,POKA-2003-B-0048-JJ,Citywide Pavement Restoration Contract (Local Streets),Maduabuchi Udeh,4496,Michael Jelen,Michael.Jelen@dc.gov,202-671-4542
18th St,NW,M St,Connecticut Ave  Jefferson,1,Pavement Resurface/restoration,2005,100,Completed,0.06,2,MINOR ARTERIAL,7/1/2006 12:00:00 AM,,11/29/2005 12:00:00 AM,,396384.532220,137578.578940,38.90605801985240,-77.04168335113120,POKA-2004-B-0016-JJ,Federal Aid City Wide Pavement Restoration Contract,Maduabuchi Udeh,7624,Michael Jelen,Michael.Jelen@dc.gov,202-671-4542
Longfellow St,NW,16th St,Cul De Sac,1,Pavement Resurface/restoration,2004,100,Completed,0.10,4,LOCAL,11/28/2005 12:00:00 AM,11/30/2005 12:00:00 AM,11/30/2005 12:00:00 AM,,396780.486360,143308.7912,38.95767905681780,-77.03714520977340,N/A,Citywidy Pavement Restoration,Paul Stephenson,3572,Deguzman,N/A,202-671-4591
10th St,NW,M St,N St,1,Pavement Resurface/restoration,2005,100,Completed,0.11,2,COLLECTOR,7/1/2006 12:00:00 AM,,11/30/2005 12:00:00 AM,,397746.316380,137620.630910,38.90644138516850,-77.02598324595710,,Federal Aid City Wide Pavement Restoration Contract,Maduabuchi Udeh,7577,Michael Jelen,Michael.Jelen@dc.gov,202-671-4542
Woodley Rd,NW,Connecticut Ave,29th St  Garfield St,3,Street Light Projects,2003,100,Completed,0.27,3,LOCAL,,11/30/2005 12:00:00 AM,11/30/2005 12:00:00 AM,,395217.037750,139776.686820,38.92585372488450,-77.05515890572740,,StreetLight Series Circuit Conversion at 5 Locations,Mike Dorsey,8704,Mike Dorsey,,
Woodley Rd,NW,Cathedral Ave (E),Cathedral Ave (E),0,Street Light Projects,2003,100,Completed,0,,,,11/30/2005 12:00:00 AM,11/30/2005 12:00:00 AM,,395651.639990,139708.16,38.92523867179770,-77.05014647744160,,StreetLight Series Circuit Conversion at 5 Locations,Mike Dorsey,8702,,,
3rd St,SW,Independence Ave,C St,1,Street Light Projects,2003,100,Completed,0.10,2,COLLECTOR,,11/30/2005 12:00:00 AM,11/30/2005 12:00:00 AM,,398681.142360,135440.849020,38.88680701686330,-77.01520123388130,,StreetLight Series Circuit Conversion at 5 Locations,Mike Dorsey,8713,Mike Dorsey,,
16th St,NW,Primrose Rd,Maryland Line,5,Upgrading,2005,100,Completed,0.27,4,PRINCIPAL ARTERIAL,7/1/2006 12:00:00 AM,,11/30/2005 12:00:00 AM,Completed Never Reported,396853.278750,146987.849130,38.99082112158910,-77.03632225513010,N/A,Pavement Resurface Restoration,Paul Stephenson,6372,Porter Curtis,N/A,202-671-4581
Woodley Rd,NW,Woodley Pl,Connecticut Ave,1,Street Light Projects,2003,100,Completed,0.07,1,LOCAL,,11/30/2005 12:00:00 AM,11/30/2005 12:00:00 AM,,395489.978520,139730.942910,38.925443092591,-77.052010951045,,StreetLight Series Circuit Conversion at 5 Locations,Mike Dorsey,8703,Mike Dorsey,,
Western Ave,NW,Chevy Chase Cir (E),Chestnut St,19,Federal Aid Resurfacing,2004,100,Completed,1.19,3,COLLECTOR,6/1/2004 12:00:00 AM,11/30/2005 12:00:00 AM,11/30/2005 12:00:00 AM,2 Year CIP 2001 - 2003,394025.230170,145110.298440,38.97389305250530,-77.06894972840290,N/A,FedAid_6YR_CIP,Paul Stephenson,2732,Lennox Bruce,Lennoxbruce@dc.gov,(202)-671-45
49th St,NW,Fulton St,Garfield St,1,Pavement Resurface/restoration,2004,100,Completed,0.12,3,LOCAL,3/31/2004 12:00:00 AM,12/1/2005 12:00:00 AM,12/1/2005 12:00:00 AM,,391850.009170,139891.733630,38.92686532456070,-77.09399008018210,2nd Aid to State,Citywide Pavement Restoration,Paul Stphenson,3948,Deguzman,,202-671-4591
Quackenbos St,NE,New Hampshire Ave,Eastern Ave,2,Pavement Resurface/restoration,2005,100,Completed,0.24,4,LOCAL,7/2/2007 12:00:00 AM,,12/6/2005 12:00:00 AM,2 Year CIP 2001 - 2003,399828.864290,143983.751880,38.96376515883820,-77.00197465059270,,,,2642,,,
North Capitol St,BN,Hawaii Ave  Rock Creek Chu,Buchanan St,1,Pavement Resurface/restoration,2003,100,Completed,0.02,5,PRINCIPAL ARTERIAL,12/8/2003 12:00:00 AM,12/15/2005 12:00:00 AM,12/15/2005 12:00:00 AM,,399253.709690,142147.027070,38.94721915529170,-77.00860907732460,,Rehabilitation of N. Capitol St. from Michigan to Buchanan St,Konjit Eskender,8543,Stanley Freeman,Stanley.Freeman@dc.gov,202-234-1458
